<?xml version="1.0" encoding="UTF-8"?>
<kml xmlns="http://www.opengis.net/kml/2.2" xmlns:gx="http://www.google.com/kml/ext/2.2" xmlns:kml="http://www.opengis.net/kml/2.2" xmlns:atom="http://www.w3.org/2005/Atom">
<Document>
	<name>Left_Boundary_Data.kml</name>
	<StyleMap id="m_ylw-pushpin">
		<Pair>
			<key>normal</key>
			<styleUrl>#s_ylw-pushpin</styleUrl>
		</Pair>
		<Pair>
			<key>highlight</key>
			<styleUrl>#s_ylw-pushpin_hl</styleUrl>
		</Pair>
	</StyleMap>
	<Style id="s_ylw-pushpin">
		<IconStyle>
			<scale>1.1</scale>
			<Icon>
				<href>http://maps.google.com/mapfiles/kml/pushpin/ylw-pushpin.png</href>
			</Icon>
			<hotSpot x="20" y="2" xunits="pixels" yunits="pixels"/>
		</IconStyle>
	</Style>
	<Style id="s_ylw-pushpin_hl">
		<IconStyle>
			<scale>1.3</scale>
			<Icon>
				<href>http://maps.google.com/mapfiles/kml/pushpin/ylw-pushpin.png</href>
			</Icon>
			<hotSpot x="20" y="2" xunits="pixels" yunits="pixels"/>
		</IconStyle>
	</Style>
	<Placemark>
		<name>Left_Boundary</name>
		<LookAt>
			<longitude>9.291603761556107</longitude>
			<latitude>45.63064107875911</latitude>
			<altitude>0</altitude>
			<heading>0.001622394344330198</heading>
			<tilt>60.00110414169518</tilt>
			<range>141.6949900840092</range>
			<gx:altitudeMode>relativeToSeaFloor</gx:altitudeMode>
		</LookAt>
		<styleUrl>#m_ylw-pushpin</styleUrl>
		<LineString>
			<tessellate>1</tessellate>
			<coordinates>
				9.280685585930211,45.61606367279641,0 9.280700467120651,45.61616392361078,0 9.280709180045672,45.61622327158444,0 9.280719550274508,45.61628474842525,0 9.280730533676095,45.61635952603887,0 9.280747914646598,45.61647856760467,0 9.280761464617903,45.61657465326605,0 9.280774537639029,45.61666522420241,0 9.280786646428741,45.6167377077585,0 9.280794185973109,45.61680917564708,0 9.280807521118637,45.61690003620252,0 9.280818149008965,45.61696873967303,0 9.280827524130563,45.61703635953144,0 9.280835978413158,45.61709803952575,0 9.280844593416308,45.61715223237711,0 9.280855205677579,45.61721990706431,0 9.280864039087202,45.61728330900326,0 9.280873219682167,45.61735824407517,0 9.280886332727915,45.61744241183067,0 9.280900842904277,45.61753624221354,0 9.280907620444726,45.61759558486811,0 9.280914951591534,45.61764402376074,0 9.280922826584392,45.61769605366429,0 9.280934261686758,45.61775348458564,0 9.280939427528072,45.61781690800002,0 9.280948936946805,45.61787913626451,0 9.280956743178525,45.61793829465726,0 9.280968653407829,45.61800467347972,0 9.280976906782431,45.61808023515889,0 9.280989881262942,45.61815109241346,0 9.281004983592249,45.61825277569817,0 9.28101058490892,45.61831448482622,0 9.281026370478351,45.61839415548855,0 9.281039919664444,45.61847553516284,0 9.281047882042621,45.61855957311523,0 9.281060025742867,45.61865278892271,0 9.281075277350244,45.61872277502059,0 9.281084788351331,45.61879834048133,0 9.281097864901414,45.61888653516214,0 9.281106857067904,45.61895341115813,0 9.281117398317878,45.61902688382763,0 9.28112704287453,45.61910367125873,0 9.281138497013668,45.61917095009593,0 9.281145728271401,45.61922792811006,0 9.281156130994344,45.61929689510279,0 9.28116459860024,45.61936307483893,0 9.281174081947247,45.61941886452915,0 9.281183145017343,45.61948330390126,0 9.281196112240158,45.61955956491129,0 9.281206872373302,45.61963507825069,0 9.281218108521694,45.61972655974963,0 9.281229211193455,45.61980007652798,0 9.281240685081055,45.61986115447757,0 9.28125145786592,45.61993679953675,0 9.281256990774152,45.61998541357135,0 9.281265083891208,45.6200339420955,0 9.281273100156099,45.62008726052456,0 9.281277386460133,45.62013109466246,0 9.281286238394797,45.62018900970582,0 9.281294179446952,45.6202547428345,0 9.281302198039203,45.62031819659177,0 9.281311383787065,45.62037877507681,0 9.28131794040871,45.62044433943354,0 9.281327711293573,45.62050867283408,0 9.281337746289447,45.62057400778061,0 9.281346499200003,45.6206280817113,0 9.281351212365401,45.6206953488156,0 9.281364795000277,45.62075583461688,0 9.28137051820157,45.6208488895221,0 9.281382736725003,45.62091241328461,0 9.281387095462954,45.62096305197637,0 9.281396880621337,45.62101310433647,0 9.281405477963176,45.62107958255618,0 9.281411462367268,45.62114344053427,0 9.281417957064829,45.62120154573127,0 9.281426434396105,45.6212654348316,0 9.281435728355907,45.6213237253887,0 9.281442328485049,45.62138171652242,0 9.281449788228912,45.62143492982464,0 9.281454889905653,45.62149522791505,0 9.28146434180114,45.62155599048862,0 9.281474434435808,45.62163553279846,0 9.281482059975428,45.62170387058535,0 9.281488551052803,45.6217558105682,0 9.281495548960976,45.62179866917818,0 9.28149772558184,45.6218366068501,0 9.281506991089501,45.62188831098121,0 9.281513862405678,45.6219366158375,0 9.281520827683211,45.62198493580964,0 9.281526459146628,45.62201920790622,0 9.281537807812475,45.62211813515187,0 9.281543496852613,45.62216590640421,0 9.281549138400942,45.62221266948702,0 9.281556407983098,45.6222681149134,0 9.281563536491561,45.62232651780258,0 9.281571644984679,45.62238556390234,0 9.281579211847335,45.62243735854338,0 9.281588718112371,45.62252048450979,0 9.281599084375358,45.62260297670097,0 9.281610592513301,45.62268208793251,0 9.281620396896527,45.62276165576207,0 9.281631540085957,45.62284755287006,0 9.281642749646956,45.62294941458309,0 9.281649859501721,45.6229903638821,0 9.281655391627659,45.6230224131555,0 9.281659838455585,45.62306028983482,0 9.281663256137323,45.62309875521219,0 9.281670239731046,45.6231481174805,0 9.281676580736686,45.62318492424134,0 9.281679111301743,45.6232189101038,0 9.281682973488854,45.62325477098064,0 9.281691229798989,45.62329702137253,0 9.281694277447523,45.62333658447142,0 9.281700418078048,45.62338163692822,0 9.281705288686164,45.62342972101963,0 9.281712022691057,45.62347121786141,0 9.281714714541021,45.62350639652669,0 9.281721822954399,45.62355645878581,0 9.281727039920437,45.62359946639999,0 9.281735077234712,45.62364365560343,0 9.281738184991244,45.62367881043986,0 9.281744713334311,45.62372522354161,0 9.281748796679313,45.62375464992267,0 9.281753157389366,45.62379529867338,0 9.281756560830994,45.6238268770925,0 9.281760097648652,45.62385405893668,0 9.281764744286127,45.62389076340938,0 9.281770294214084,45.62392264815141,0 9.281773845023132,45.62395748457777,0 9.281777853210214,45.62399026807309,0 9.281782474318049,45.62401673221011,0 9.281785663845991,45.62404398807357,0 9.281788873253431,45.62407108019191,0 9.281785762618002,45.62410175297735,0 9.281790568085926,45.62412729400271,0 9.281793489253634,45.62415862642764,0 9.281799021261925,45.62420294336925,0 9.281799843008876,45.62421727806746,0 9.28180440542576,45.62423690052052,0 9.281805488453527,45.62425730096137,0 9.281808781162972,45.62427493393284,0 9.281810688846983,45.62429948420468,0 9.281813184868792,45.62431775012599,0 9.281815430820936,45.62433210198311,0 9.28181777700954,45.62435367672014,0 9.281820943567556,45.62437784969976,0 9.281824475058036,45.62440494806359,0 9.281829008957011,45.62442810881213,0 9.281834169870988,45.62446311216007,0 9.281837650359027,45.62447648789117,0 9.281839782306005,45.624490801007,0 9.281842865807539,45.62450139286058,0 9.281846573467378,45.62451200837788,0 9.281850550443526,45.62452139408773,0 9.281856990285126,45.62453228030201,0 9.281864257436087,45.62454178771786,0 9.281871796720944,45.62455154168704,0 9.281882120060047,45.62456090294387,0 9.28189325204678,45.624567501544,0 9.281905189246229,45.6245748508718,0 9.281916245674783,45.62457969874192,0 9.281929692077872,45.62458600238186,0 9.281942998129173,45.62459325893577,0 9.281957237372838,45.62459696212451,0 9.281974157981711,45.62460298685833,0 9.281986806758377,45.62460451169225,0 9.282002851081828,45.62460913578061,0 9.282016446493424,45.62460913434085,0 9.282031713425262,45.62461147279645,0 9.28204940197257,45.62461225521337,0 9.282067683860213,45.62461303910844,0 9.282086561678462,45.62461382548411,0 9.282103884958293,45.62461379856666,0 9.282116426561908,45.62461234399768,0 9.282133595138829,45.62461224218629,0 9.282146376169003,45.62461093476031,0 9.282161762757685,45.62460857607242,0 9.282178051421964,45.62460762868037,0 9.282189742231104,45.62460661148706,0 9.282203062363582,45.62460511301974,0 9.282215336652026,45.62460649694899,0 9.282231047454585,45.62460363361979,0 9.28224499281837,45.62460410297355,0 9.282257370161041,45.6246020908206,0 9.282269231187021,45.62460177863517,0 9.282283708926569,45.62460133792587,0 9.282298822559135,45.62460219319226,0 9.282312236446176,45.62460309042744,0 9.282326030933968,45.62460542194842,0 9.282340784365424,45.62460913124239,0 9.282356637364837,45.62461445250655,0 9.282371555655619,45.62462341574502,0 9.282382748563061,45.62463009461573,0 9.282396856217165,45.62464111003042,0 9.282405980674614,45.62465471711558,0 9.282414090875086,45.62466895768627,0 9.28241869327039,45.62468595629316,0 9.282418701617294,45.6247038226285,0 9.282415155649256,45.6247181653289,0 9.282411707480565,45.62473490945815,0 9.282405037466145,45.62475364660121,0 9.282394228416349,45.62477536032961,0 9.282385748039248,45.62480575397397,0 9.282375907246168,45.62483359027175,0 9.28235934730453,45.62486521670402,0 9.282346880072662,45.62489284944568,0 9.28233660336234,45.62492062968388,0 9.282325695551046,45.62495168905015,0 9.282310610027096,45.62498381464362,0 9.282303424760894,45.62500354820355,0 9.2822906783592,45.62503837714596,0 9.282278190443957,45.62506788236846,0 9.282264359976967,45.62510465882456,0 9.282250261356415,45.62514123567967,0 9.282241613229081,45.62517607405765,0 9.282231046589178,45.62520455089232,0 9.282217950057678,45.62523469255748,0 9.282203443075323,45.62526899323692,0 9.282194922812288,45.62529824729022,0 9.282182153982614,45.62533151441387,0 9.282172372995595,45.62535476957056,0 9.282163943826491,45.62538044839973,0 9.282155190266435,45.62540634221116,0 9.282144888297836,45.62543500208285,0 9.282132825664085,45.62546298416026,0 9.282122530888213,45.62549208754805,0 9.282112282545977,45.62552353512907,0 9.282100288227539,45.62556218307441,0 9.282090753059764,45.62560048175692,0 9.282076801164585,45.6256548747975,0 9.282069898280241,45.62568879974813,0 9.282061935188516,45.62572183377478,0 9.282055847744445,45.62575254489813,0 9.282049622418011,45.62578340568248,0 9.282042488899297,45.62582613943718,0 9.282039672693987,45.62585889392923,0 9.282036735368385,45.62590108110319,0 9.282031198859553,45.62596319691697,0 9.282021745535209,45.62602369867498,0 9.282022281393667,45.62607078058844,0 9.282024491994509,45.62615739203316,0 9.282025453612155,45.62620620436878,0 9.282027432049709,45.6262455487137,0 9.282031207305737,45.62627891461143,0 9.28203612704969,45.62631673139236,0 9.28204065054187,45.62635907244298,0 9.282043673599453,45.62639435029111,0 9.282048823287889,45.62642982857754,0 9.282052498613233,45.6264637694223,0 9.282054245645712,45.62649397871267,0 9.282058188798995,45.62652774386611,0 9.28206419584026,45.62656901771515,0 9.282069634427941,45.6266180438388,0 9.282075747852348,45.62666186212298,0 9.282081734358478,45.62671098063189,0 9.282086109531441,45.62675810103498,0 9.282091487621715,45.62681714133906,0 9.282098352294106,45.62687120411637,0 9.282106126440233,45.62692126108146,0 9.282110774817395,45.62696694131667,0 9.282116932091228,45.62701996033005,0 9.282121489673358,45.62707242228191,0 9.282129390447114,45.62712003671741,0 9.282135928248374,45.62717634041874,0 9.282142810081417,45.62723054774455,0 9.282148752102533,45.62728325546119,0 9.282153051242856,45.62734818649557,0 9.282164597086577,45.62741713066909,0 9.282172813713537,45.62748597949847,0 9.28218540816318,45.62754515050518,0 9.282199703061325,45.62760660476726,0 9.282216013806918,45.6276519357188,0 9.282229439611347,45.62770173308761,0 9.282242066349902,45.6277324981877,0 9.282250447326314,45.62776580937712,0 9.28226438915055,45.62780394728895,0 9.28227808007906,45.62784265965819,0 9.282297459404845,45.62788162446923,0 9.282309592151512,45.62791119311919,0 9.282324608048357,45.62794211230466,0 9.282343143818657,45.62797941183334,0 9.282361640551821,45.62801914433852,0 9.282379306453484,45.62805552512525,0 9.282408892668101,45.62810599941875,0 9.282444853010546,45.62816979138376,0 9.282491539856593,45.62824673194773,0 9.282538621289586,45.62831805772732,0 9.282594624678453,45.6283888098574,0 9.282658705654558,45.62847033785015,0 9.282723619919881,45.62854776767368,0 9.282796745289181,45.62862280617971,0 9.282865850589983,45.62868900613429,0 9.282952000706244,45.62876689898491,0 9.283018899260099,45.62882916842074,0 9.283072220217509,45.62887648953681,0 9.283133931312463,45.62892288900527,0 9.283187437983358,45.62895846300525,0 9.283242552443273,45.62900516079066,0 9.283306229766129,45.62903710367307,0 9.283365450182979,45.62907969617013,0 9.28343726848966,45.62912339314743,0 9.283514541515519,45.62916987397854,0 9.283593604454595,45.62921989668121,0 9.283662420778073,45.62925775628622,0 9.283738743086566,45.6292948008916,0 9.283806009107082,45.62932774196094,0 9.283871821479572,45.62936061795634,0 9.283934891777497,45.6293916403878,0 9.283995273865207,45.629418582597,0 9.284074339665374,45.62945154772251,0 9.284136396039532,45.62947680049231,0 9.284197127220777,45.62950327716026,0 9.284258463124534,45.62952505974997,0 9.284320654344446,45.62955042345835,0 9.284393066921961,45.62957767592928,0 9.284457886776805,45.62960048064513,0 9.28451211968383,45.62962052875102,0 9.284571166892432,45.62963592081417,0 9.284642503035705,45.62966258971346,0 9.284706769341561,45.62968100211637,0 9.284855838855893,45.62972478344361,0 9.285030644109046,45.62977083224115,0 9.285210773900051,45.62981131589121,0 9.285339668745486,45.62984385043395,0 9.285469304555553,45.62986500111435,0 9.285596952703866,45.62988452351698,0 9.285758461625402,45.62991024548217,0 9.285865807519516,45.6299246030518,0 9.285969852116175,45.62993495280764,0 9.286048395881926,45.62994454146203,0 9.286123090979972,45.6299514059321,0 9.286195221330164,45.62995425999585,0 9.286277548065932,45.62996462629245,0 9.286355998269467,45.62996921387702,0 9.286431854322206,45.62997567148392,0 9.286542072841478,45.62998101839369,0 9.286615023642977,45.62998435822386,0 9.286688326568207,45.62998871436525,0 9.286766407673008,45.62999078286667,0 9.286848968678941,45.62999776070319,0 9.286917136686499,45.63000228063467,0 9.286980562680077,45.63000430235763,0 9.287108328816826,45.63001280822262,0 9.287209199729389,45.63001842946166,0 9.28728844381798,45.6300239443441,0 9.287382204176238,45.6300282267395,0 9.287471055034908,45.63003487717381,0 9.287548119100437,45.63003819964784,0 9.287628055853594,45.6300428985228,0 9.287719593047578,45.63004842259996,0 9.287799466086103,45.63005425384496,0 9.287873431064025,45.63005683383013,0 9.287953808766499,45.63006097988656,0 9.288011358669081,45.63006416859252,0 9.28806994727363,45.63006827154613,0 9.288127986266261,45.63007331997277,0 9.288183251790119,45.63007662740811,0 9.288243354511119,45.63007907154557,0 9.288311763966799,45.63008226608262,0 9.288384274474497,45.63008654714521,0 9.288448710946795,45.6300899188395,0 9.288511369336611,45.63009354417999,0 9.288563699082328,45.63009684595123,0 9.288630096495575,45.63010017824572,0 9.28868761882004,45.63010486800752,0 9.288749148439839,45.63010758720748,0 9.288815708339831,45.63011207755329,0 9.288881961634001,45.63011493148493,0 9.288950586991618,45.63011913588673,0 9.289018309527457,45.63012384960015,0 9.289084745657775,45.63012653457729,0 9.289146213255925,45.63013132691321,0 9.289202836951297,45.63013150201756,0 9.289265287999431,45.63013535994608,0 9.289321437906695,45.63013712768208,0 9.289385418164587,45.63013942956071,0 9.289449128885005,45.63014294092667,0 9.289505163220158,45.63014498871256,0 9.289567635388496,45.63014722149983,0 9.289637485058464,45.63015116577091,0 9.289705924635889,45.6301525976582,0 9.289768855111721,45.6301543019032,0 9.289824288717266,45.63015714786202,0 9.289867371444851,45.6301584089071,0 9.289915696547391,45.63015971868523,0 9.28996298116707,45.63016416638336,0 9.290004284876503,45.63016492189631,0 9.290054481878698,45.63016543059159,0 9.29010744489517,45.63016750642164,0 9.290157713110281,45.63017238334054,0 9.290218073771531,45.63017238574861,0 9.290278980785462,45.63017426458993,0 9.290345372917715,45.63017810359443,0 9.29040784484053,45.6301792570608,0 9.290479703353169,45.63018117577207,0 9.290546583146313,45.63018701030433,0 9.290610710854336,45.63018767839434,0 9.290680122287359,45.63019083719533,0 9.290732329195174,45.63019433002637,0 9.290766412525112,45.6301949995885,0 9.290800000846657,45.63019737860559,0 9.290833620492545,45.6301972904605,0 9.290866363482245,45.63019734839213,0 9.290897263333701,45.63019834584659,0 9.290925801910943,45.63019926462342,0 9.290955070795,45.63020121540317,0 9.290984427059399,45.63020378281283,0 9.291007691148653,45.63020187753926,0 9.291034729781067,45.63020461672345,0 9.291057856056401,45.63020470649976,0 9.291076857851159,45.6302047073719,0 9.291101643740781,45.63020472598271,0 9.291123237754658,45.63020674264849,0 9.291141617022245,45.63020877406603,0 9.291159839982965,45.63020818487355,0 9.291174466672626,45.63020938255667,0 9.291189893746663,45.63020955476296,0 9.291205809649499,45.63020954534827,0 9.291220624829402,45.63020999067541,0 9.29123679496821,45.63021088298316,0 9.291255178972248,45.63021083500823,0 9.291269304371459,45.63021247616836,0 9.291283825675178,45.63021405902479,0 9.291297755039361,45.63021503196295,0 9.291315416451493,45.6302172051148,0 9.29133230466606,45.63021965082874,0 9.291346357347759,45.63022242034454,0 9.291359864397377,45.63022772713338,0 9.291372342229504,45.63023281302493,0 9.29138203080063,45.63023949556629,0 9.291395739630941,45.63024917388822,0 9.291406456168339,45.63026272223455,0 9.291416859741922,45.63027729597522,0 9.291425888241289,45.63029166444291,0 9.291433125412052,45.63031000152228,0 9.291440296527734,45.63032626143577,0 9.291444932644804,45.63033855403478,0 9.291450598163697,45.63035160791951,0 9.291456043914348,45.63036429390203,0 9.291462248805749,45.63037767790428,0 9.291468820503015,45.63039182253274,0 9.291476319687689,45.63040639345236,0 9.291483002029628,45.6304206863958,0 9.291489763157506,45.63043447385279,0 9.291498752567461,45.63045725300843,0 9.291504992803789,45.63047230331091,0 9.291511828994183,45.63048755803405,0 9.291516962543929,45.63049939259049,0 9.291524620827516,45.63051052363797,0 9.291530743204321,45.63052010267222,0 9.29153799665758,45.63053009121512,0 9.291544557443615,45.63053805281826,0 9.291551530591374,45.63054519615631,0 9.291559726217331,45.63055299177438,0 9.291570021673039,45.63056149956927,0 9.291581069576331,45.63056949886365,0 9.291593656924695,45.63057799600185,0 9.291607806805281,45.63058482755503,0 9.291623318867037,45.63059317353235,0 9.291644909808012,45.6306002503487,0 9.291665303496131,45.63060571726109,0 9.291683502297216,45.63060841417043,0 9.291700114495534,45.63061151073432,0 9.29171795329497,45.63061308583348,0 9.291738974392494,45.63061567163851,0 9.291761566609932,45.63061863810506,0 9.291779695796482,45.63062436361662,0 9.291797518474796,45.63062672682921,0 9.291817071675215,45.63062947848415,0 9.291836613531268,45.63063179000993,0 9.291853121752299,45.63063356611494,0 9.291871260297304,45.63063616839698,0 9.291881892736633,45.630637547684,0 9.291895555773934,45.63063893564645,0 9.291909219919329,45.63064079884769,0 9.291924410119886,45.63064172462701,0 9.291939462208124,45.63064451316051,0 9.291955261679295,45.63064546039242,0 9.291974950718792,45.63064793390508,0 9.291992251035971,45.63065193164599,0 9.292018094152539,45.63065413645613,0 9.292083974662805,45.6306617994368,0 9.292135791887457,45.63067105509986,0 9.292186423042924,45.63067964434308,0 9.292229723654341,45.63068465492936,0 9.292278318628846,45.63069386206843,0 9.292317605613931,45.63069868919913,0 9.292358402113969,45.63070748739363,0 9.292397020537109,45.63071398855639,0 9.292464041010859,45.63072509369044,0 9.292512924386248,45.63073381173556,0 9.292561388100509,45.63074412329788,0 9.292625980943063,45.63075434010706,0 9.292667577896685,45.63076386109456,0 9.292725959500496,45.63077313168198,0 9.292780908253985,45.63078458664487,0 9.292902707991999,45.63081463333057,0 9.292984011258739,45.63083592738703,0 9.293076838117557,45.63086033922352,0 9.293160962793763,45.63087634474699,0 9.293228533622315,45.63089445330538,0 9.293291341004311,45.63090733680478,0 9.293362655493045,45.63092351841554,0 9.293495389027749,45.63095566157114,0 9.293603322117793,45.63098072035564,0 9.293712726717494,45.63100826371179,0 9.293844447367821,45.63103748640403,0 9.293964815921964,45.63106897883576,0 9.294090280417057,45.63109547999846,0 9.294171293097262,45.63111426289382,0 9.294272266666727,45.63113834184937,0 9.294373357573074,45.63116306930354,0 9.294459790431624,45.63118221869258,0 9.294542104885297,45.6312005633387,0 9.294627393808081,45.63122008615917,0 9.294702340206168,45.63123700563317,0 9.294760778823914,45.63125201874687,0 9.294815159524696,45.63126498817871,0 9.294878783621067,45.63127882030984,0 9.294914698222541,45.63128555342996,0 9.294954312776918,45.6312954188031,0 9.29499785210516,45.63130645587519,0 9.295048792008934,45.63131993363373,0 9.295095071739404,45.63133024540718,0 9.295151417558694,45.63134259954861,0 9.295203501269437,45.63135475207184,0 9.295248100752305,45.63136407692015,0 9.295302879880419,45.63137534864574,0 9.295355559516151,45.63138681836304,0 9.29541304078006,45.63139792948791,0 9.295481552595001,45.63140853148512,0 9.295544644531837,45.63141491309975,0 9.295607763231583,45.63141754160141,0 9.295676884877151,45.63141800309565,0 9.29574160417843,45.6314134304243,0 9.295787674192473,45.63140904468114,0 9.29582214473951,45.63140473719348,0 9.295861269065608,45.63139880184992,0 9.295912034848467,45.63138997024296,0 9.295953399538838,45.63138051592046,0 9.29599057571102,45.63137105107088,0 9.29602871290852,45.63135871912186,0 9.296060149758883,45.63135146805957,0 9.296087743383069,45.63134199097998,0 9.29611679941261,45.63133117195586,0 9.296142716199746,45.63132163479453,0 9.296166509954574,45.63131097637756,0 9.296197811186659,45.63129517361617,0 9.296235742327887,45.63127637750925,0 9.296268467738509,45.63126082363235,0 9.296289495706596,45.63124652713877,0 9.296325586715977,45.63122334410743,0 9.296354563208503,45.63120378029507,0 9.296383898959411,45.63118180121491,0 9.296408154998808,45.63116309407805,0 9.296435948787899,45.63114001544404,0 9.296457837936051,45.63111818372056,0 9.296481173651632,45.63109935612472,0 9.296503603421213,45.63107228819946,0 9.296525286024886,45.63104653189215,0 9.296544458300094,45.63102081691689,0 9.296562340740861,45.63099730434216,0 9.296579336535533,45.63096920845297,0 9.29659233755871,45.63094625142242,0 9.296603380169737,45.63092141509809,0 9.296611232709376,45.63090354808853,0 9.296618433480294,45.63088503520008,0 9.296626379955612,45.63086792776388,0 9.296633989607502,45.63085421541727,0 9.296642059124876,45.63083999223601,0 9.29664888488805,45.63082231919282,0 9.296652624843196,45.63080844102136,0 9.296656573334289,45.63079334154929,0 9.296661494803802,45.63076246633523,0 9.296667339833222,45.63073443972146,0 9.296672244364103,45.6307050418661,0 9.296676241034039,45.6306748206725,0 9.296679402219713,45.63064340890458,0 9.296683551672153,45.63061499866002,0 9.296686021839944,45.63059001934482,0 9.296690977651444,45.63056342043723,0 9.296693634174586,45.6305436879895,0 9.296697911669366,45.63051725730456,0 9.296701697188263,45.63048028277582,0 9.296702926314085,45.63045385003111,0 9.296708314743327,45.63042240274773,0 9.296712444492609,45.63039004640066,0 9.29671526713555,45.6303611352547,0 9.296718209225181,45.63033762669424,0 9.29672148991588,45.63031728183562,0 9.296726044766077,45.63029860502524,0 9.296730444777712,45.63026237323326,0 9.296733411625539,45.6302295849318,0 9.296737692660646,45.63019173362151,0 9.29674306401205,45.63016095889262,0 9.296746199029675,45.63013558068099,0 9.296749271810905,45.63011077871592,0 9.296754200908515,45.63008113245906,0 9.296757394901945,45.63004763905134,0 9.296762029010402,45.63001695014055,0 9.296765140984339,45.62998723819434,0 9.296767966075521,45.62995932921538,0 9.296770039530887,45.62993347329124,0 9.296774250775082,45.62990712289895,0 9.296775224861932,45.62987929905638,0 9.296774858038662,45.62985559764367,0 9.296775594336744,45.62982965352309,0 9.296776596833709,45.62980521730537,0 9.296776307725811,45.62978128052229,0 9.296780830730603,45.62974531935836,0 9.29678819423237,45.6296925565663,0 9.296794586387175,45.62963698933252,0 9.296800675356685,45.62958868239574,0 9.29680695575053,45.6295473863346,0 9.296810393047416,45.62951460657484,0 9.296812498065517,45.62948683623479,0 9.296818712883358,45.62946454722979,0 9.296819848489406,45.62944131027014,0 9.29682330664183,45.62942008413259,0 9.296828101715208,45.62939550287791,0 9.296835885432159,45.62934354967908,0 9.296840678556837,45.62927874373251,0 9.296848551452932,45.62922932419892,0 9.296855702406681,45.62917976815832,0 9.296862104906351,45.62912875752863,0 9.296868794785482,45.62907898344123,0 9.296872870478365,45.6290298393331,0 9.296880999676681,45.62898497627598,0 9.296886021427076,45.62893458180267,0 9.296895378457705,45.62886743046972,0 9.296907057100539,45.62880681598337,0 9.296912288885604,45.62874784518414,0 9.296920461762699,45.62870454670882,0 9.296925107444117,45.62865676891217,0 9.296926285608524,45.62861116983543,0 9.296924294267633,45.6285733869085,0 9.296916726768805,45.62854659170132,0 9.296911581288484,45.62853359104448,0 9.296907305380135,45.62851712544313,0 9.296900096255317,45.62849764356361,0 9.296892862313832,45.62848539194129,0 9.296885983348634,45.62847222369801,0 9.296878944775571,45.62846106020618,0 9.296872150265356,45.62845136794886,0 9.296865487439526,45.62844395160311,0 9.29685889006322,45.62843303065998,0 9.296849718899171,45.62842196013399,0 9.296840204168827,45.62841412390542,0 9.296832736100125,45.62840576938988,0 9.296823682316681,45.62839692804997,0 9.296813648534796,45.62838936742325,0 9.296805875866687,45.62838205951196,0 9.296797900660533,45.62837535663696,0 9.296790044303647,45.6283693013924,0 9.296781232228037,45.62836256760608,0 9.296763221254544,45.62834979233849,0 9.296744005242804,45.62833951094198,0 9.296726020964815,45.62832832630832,0 9.296710355428129,45.62831869405215,0 9.296694623209021,45.62830632164822,0 9.296676569970156,45.62829639652749,0 9.296657873422827,45.62828741016315,0 9.296634738335261,45.62827891159804,0 9.296613223676665,45.62826942293369,0 9.296590145322877,45.62826116922016,0 9.296564707498153,45.62825108212093,0 9.296540018922828,45.62824114993555,0 9.296505902428219,45.62822643331649,0 9.296475079403127,45.62821447259413,0 9.296448887829676,45.62820503552907,0 9.296424919179291,45.62819512415256,0 9.296399449735258,45.62818430819981,0 9.296371286833287,45.62817386913544,0 9.29634460789223,45.62816525113328,0 9.296307720565078,45.62815270310215,0 9.296248475812874,45.62813108703839,0 9.296186783372757,45.62810485092279,0 9.296133546166773,45.62808424596553,0 9.296082040306796,45.62806631249227,0 9.296036284550214,45.62804834819827,0 9.295981294754377,45.62802531366468,0 9.295933386848034,45.62800564650011,0 9.295886912113554,45.62798763276071,0 9.295835946295647,45.62796787079346,0 9.295793525097134,45.62795235793881,0 9.295755754152001,45.62793801025018,0 9.295721550059323,45.62792353738612,0 9.295694840880056,45.62791166577069,0 9.295624671015098,45.62788580509121,0 9.295562005317187,45.62786050443915,0 9.295506845550632,45.62783878850357,0 9.295440644847552,45.62781752802807,0 9.295383827797268,45.62780382541992,0 9.295263746267249,45.62775898467669,0 9.295148089598367,45.62771253563158,0 9.295063081184518,45.62767831058297,0 9.294983809866828,45.62764853350213,0 9.294875735113401,45.62760636893476,0 9.294749784986614,45.62756021887709,0 9.294162175335636,45.62733307825202,0 9.293792630596407,45.62719169282634,0 9.293670820764866,45.62713758123663,0 9.293539745432756,45.62708694936304,0 9.29341887908047,45.62704220761134,0 9.293297247365292,45.62699581149934,0 9.293209697312044,45.62695925323441,0 9.293046588050187,45.62689868431001,0 9.292963904536132,45.62686610293589,0 9.292825048010513,45.62680479052729,0 9.292767237450155,45.62678324082975,0 9.292248689308948,45.6265384141563,0 9.291972070510541,45.62638536704078,0 9.291915530207822,45.62635453581034,0 9.291850032948187,45.62631470770639,0 9.291799851992375,45.62628508961341,0 9.291725922146711,45.62624129373508,0 9.291674549378349,45.62621203241012,0 9.291510232697128,45.62610876121406,0 9.291342445730928,45.6259995835616,0 9.291204784549894,45.62591965565768,0 9.290929658574491,45.62575359935765,0 9.290573327622027,45.62553701341319,0 9.290526612761568,45.62550828571642,0 9.290474926393362,45.62547792104903,0 9.290282122789979,45.62535699291487,0 9.29006111256262,45.62521972731055,0 9.290028962902525,45.62520122139807,0 9.289959558110311,45.62515950659654,0 9.289917840312096,45.62513292415958,0 9.289876111000769,45.62510785207191,0 9.289815287214441,45.62506851939037,0 9.289759652051725,45.62503620618622,0 9.28965109978671,45.62496869115761,0 9.28961790953708,45.62495062940441,0 9.289486818320478,45.62486798522184,0 9.28911427088228,45.62463791486565,0 9.28903160533681,45.62458523375386,0 9.288961506459009,45.6245441482361,0 9.28891343591728,45.62451247459151,0 9.288858608751752,45.62447901119653,0 9.288820272875959,45.6244557991869,0 9.288769505766304,45.62442400040963,0 9.288747085989449,45.62441108892627,0 9.288488320498233,45.62425248017553,0 9.288479183778593,45.62424713128398,0 9.287885374927821,45.62387907430269,0 9.287721902041294,45.62377984611216,0 9.28768602882166,45.62375530064591,0 9.287599490163181,45.62370290781032,0 9.287480344766612,45.6236280285307,0 9.287358421881983,45.62355417783159,0 9.287236782051696,45.62347670341402,0 9.287191760539796,45.6234495254826,0 9.287151140589113,45.62342465195513,0 9.287110901813563,45.62339693697789,0 9.287035138364907,45.62335410833641,0 9.286953135309661,45.62330251079082,0 9.286878497978865,45.62325798506071,0 9.28682198003556,45.62322149716676,0 9.286771513099509,45.62319096334136,0 9.286721762379006,45.62316101928546,0 9.286685534417916,45.6231391825367,0 9.286650942195608,45.62311804783409,0 9.286613599130629,45.623095370025,0 9.286576505191068,45.62307255855786,0 9.286546708598395,45.6230518330014,0 9.286518419684784,45.62303591822763,0 9.286486300497414,45.62301837930011,0 9.286462532686494,45.62300279097922,0 9.286430943721831,45.62298371372837,0 9.286405181937985,45.62296815307238,0 9.286384189440325,45.62295466501373,0 9.286357315567017,45.62293935585853,0 9.286334192012188,45.6229249393342,0 9.286300152808911,45.62290355597435,0 9.286265590766522,45.62288143016125,0 9.286234125150749,45.6228628059541,0 9.286207882625238,45.62284658963636,0 9.286183658042358,45.6228310874796,0 9.286160767571639,45.6228174038081,0 9.286141790020148,45.62280612088276,0 9.286124450094412,45.62279629981048,0 9.286108774101848,45.62278555377651,0 9.286092030879621,45.62277474713974,0 9.286077201065444,45.62276654278164,0 9.286060256583045,45.62275805708578,0 9.286036959399944,45.6227416494928,0 9.286018290408851,45.62273087749839,0 9.285997655896951,45.62271752998072,0 9.285976133938036,45.62269833860662,0 9.28595596855909,45.62267134572954,0 9.285941912038302,45.62264192038474,0 9.285935541508719,45.6226153080037,0 9.285935043845248,45.62259025104247,0 9.285936835412002,45.62256219976467,0 9.285940218980308,45.62253884249799,0 9.285945501233444,45.62251692636428,0 9.285948773247023,45.62249380945099,0 9.285955503414007,45.62246169528474,0 9.285962516936671,45.62242701335305,0 9.285967141345186,45.62239773146752,0 9.285972891027397,45.62237017092402,0 9.285975701021634,45.62234625637943,0 9.285982684518295,45.62231063895061,0 9.285987377451118,45.62228093552621,0 9.28599110051881,45.62225211298556,0 9.285994647554016,45.62222305074757,0 9.285996567466066,45.62219875392439,0 9.285996910428164,45.62217442680217,0 9.285996502355749,45.62215341035023,0 9.285994527867036,45.62212359902973,0 9.285990882312557,45.62209162823721,0 9.285987924688452,45.6220645604488,0 9.285984124871032,45.62204259862838,0 9.285981651025983,45.62202477905488,0 9.285978428177234,45.62200794769658,0 9.285974116936631,45.62198550879062,0 9.285970955146182,45.62196898407826,0 9.285967101842825,45.6219539669589,0 9.285962997647161,45.62193500350149,0 9.285954744435188,45.62190836016986,0 9.285946000693336,45.6218830857377,0 9.285936070153106,45.62185600531929,0 9.285925874968811,45.62183390541603,0 9.285913348415075,45.6218083802684,0 9.285899049581339,45.62178540888366,0 9.285886820577389,45.62176106669314,0 9.285858508153623,45.62171739682963,0 9.285839184961638,45.62168759347991,0 9.285814028707538,45.62165660339,0 9.285793047269371,45.62163119774462,0 9.285773115361685,45.62160793735171,0 9.285755459064822,45.62158775257188,0 9.28573691312176,45.62156907439982,0 9.285717410407596,45.62155032312913,0 9.285693678635429,45.62152784103211,0 9.285673328876412,45.6215094997964,0 9.285648712292939,45.62148863817667,0 9.28562671152887,45.62147048114436,0 9.285607122910841,45.62145523471983,0 9.285584393352426,45.62143838400966,0 9.285565987818149,45.62142603786526,0 9.285544821450891,45.62141275621628,0 9.285523953630438,45.62139924185676,0 9.285502159232912,45.62138522084371,0 9.285483419140954,45.62137367832676,0 9.285465323777567,45.6213607034529,0 9.285453505557443,45.62134983666273,0 9.285437952458075,45.62134018131015,0 9.285421104558759,45.62133129670884,0 9.28540305848996,45.62132111423177,0 9.285387554112779,45.62131363703423,0 9.285373490626363,45.62130606828872,0 9.285353992748991,45.6212954255153,0 9.285331843252195,45.62128404625783,0 9.28531459378242,45.62127437602895,0 9.285299785415408,45.62126667661262,0 9.285285036814027,45.62126107943079,0 9.285273994798866,45.62125646100698,0 9.285262389389693,45.62125191973377,0 9.285249125053824,45.62124741177914,0 9.285234379304221,45.62123941660423,0 9.285216717027879,45.62122931197648,0 9.285199861589176,45.62121934547274,0 9.285186860064158,45.62120895179328,0 9.285175731468913,45.62119971799828,0 9.285163047306412,45.62118782617704,0 9.285152791367075,45.62117636156214,0 9.285143773545766,45.62116549260833,0 9.285134279116022,45.62115348979579,0 9.285127394078962,45.621141022595,0 9.285120752673716,45.62112731963335,0 9.285114955041662,45.62111636060195,0 9.285110521729646,45.62110610933924,0 9.285107296221465,45.62109650595966,0 9.285103531228067,45.621080602036,0 9.285099489539682,45.62106644758578,0 9.285096279458342,45.62105126331249,0 9.285094311060178,45.62103443538181,0 9.285091467405307,45.62101962049871,0 9.285087575749149,45.62100459265122,0 9.285082845602995,45.62098063384837,0 9.285077338247124,45.62095881912722,0 9.28507329109415,45.62093955593789,0 9.285068716048627,45.62091898136898,0 9.285062043034987,45.62088215233504,0 9.285054905673984,45.62084947681125,0 9.285048754421197,45.62081812860128,0 9.285043937100195,45.62079372196688,0 9.285038852364442,45.62076570794103,0 9.285034034248836,45.62074535455083,0 9.285030687269183,45.62072870496057,0 9.285021982677355,45.62068809590646,0 9.285015244981334,45.62065354794078,0 9.285008645479369,45.62061988431385,0 9.285000425543117,45.62058320160633,0 9.284993003994142,45.62054820993991,0 9.284980032294627,45.62048350960622,0 9.284966964242148,45.6204276175056,0 9.284957106763315,45.62037953556997,0 9.28494963496945,45.62034418089182,0 9.284943101090352,45.62031368140391,0 9.284933162654758,45.62026202364129,0 9.284922443060367,45.62020899359423,0 9.284912360602558,45.6201595728308,0 9.284906393071308,45.62012760860918,0 9.284900167391935,45.6200932168147,0 9.284892869812516,45.62006073718265,0 9.284887330638776,45.62003625981588,0 9.284883255959402,45.6200103056548,0 9.284872670912844,45.61994514024732,0 9.284862639467729,45.61988771633503,0 9.284854372879574,45.61983669331028,0 9.28484567058511,45.61978974986455,0 9.284838066737297,45.6197412173312,0 9.284830303963993,45.61968875746092,0 9.284824085689078,45.61964408036565,0 9.284815585308579,45.6195854627517,0 9.284805930563175,45.61953900554058,0 9.28480041357407,45.61949984901129,0 9.284792810716727,45.61944331168738,0 9.284783865856994,45.61938570227866,0 9.284778696165858,45.61935240736098,0 9.284774680126837,45.61932495083717,0 9.284769086745259,45.61928801134086,0 9.284764832559855,45.61926089006686,0 9.284760372807987,45.61922943210743,0 9.284756877361755,45.61920335877885,0 9.284746583632625,45.61913140420442,0 9.284738213244424,45.61907414356314,0 9.284729500027415,45.6190223065171,0 9.28472206482644,45.61897078898614,0 9.284716743282594,45.61892065897606,0 9.284706484547014,45.61885999633081,0 9.28470027333397,45.61881551536565,0 9.284694190087164,45.61878048212386,0 9.284689561916238,45.61874708869553,0 9.28466823845482,45.61859833317156,0 9.284661146042643,45.61855571666449,0 9.284655504082904,45.61851930626823,0 9.284646422696941,45.61845501102027,0 9.284638322369492,45.61839911437346,0 9.284630980050659,45.61834950197948,0 9.284622359934398,45.61829935558683,0 9.284616983666227,45.61826160975946,0 9.284614571566268,45.61823302377798,0 9.284608166438419,45.61820330331631,0 9.284604356771858,45.61817519696181,0 9.284599815240007,45.61814673195422,0 9.284594781844566,45.61811118944237,0 9.284582025067952,45.61803242269181,0 9.284572987453753,45.61796181303437,0 9.284563574193982,45.61789801421575,0 9.284554275773909,45.61784612310642,0 9.284548424175084,45.61780114476016,0 9.284541593879913,45.61775151313696,0 9.284527702333561,45.61766054009469,0 9.284516592579324,45.61758303301499,0 9.284504564206046,45.61751140507278,0 9.284496447061709,45.61744968088812,0 9.284484395316268,45.61737824671363,0 9.284475947495265,45.61732899651776,0 9.284469258468732,45.61728122766086,0 9.284462524887081,45.61723399777966,0 9.28445664644163,45.61718773093237,0 9.28444329830857,45.61709672219982,0 9.284429377616112,45.61701228414687,0 9.284416480690606,45.61691990404731,0 9.284405634974979,45.61684386180601,0 9.284395336737996,45.61677059185287,0 9.284380171707983,45.6166706180374,0 9.284365791488728,45.61655429031885,0 9.284348978590875,45.61644782242914,0 9.284334931975465,45.61636938435321,0 9.284326859407891,45.61630867465736,0 9.284313901727721,45.61622767367201,0 9.284306476769812,45.61616837101866,0 9.284296561482462,45.61611236666862,0 9.284275782975147,45.61596924444576,0 9.284266475125815,45.61591515610679,0 9.284261051885899,45.61587098660194,0 9.28425419232402,45.61582712334796,0 9.284238778964371,45.6157181835173,0 9.28422465177799,45.61563813875926,0 9.284211491404479,45.61552781867581,0 9.284201607027043,45.61546626542249,0 9.284191937383477,45.61540894688309,0 9.2841846617277,45.61535415962412,0 9.284180462510164,45.61530893707006,0 9.28416928185994,45.61523876110747,0 9.28415683590741,45.61516461082915,0 9.284146832462879,45.61509772913225,0 9.284135890096385,45.61501510157878,0 9.284124832067453,45.61494106517018,0 9.284111419316224,45.61485867270756,0 9.284100982861723,45.61477644533107,0 9.284090132333787,45.61470875725276,0 9.284079841193346,45.61463919856768,0 9.284069162581911,45.61456454659267,0 9.284062352324074,45.6145164433469,0 9.2840548815178,45.61446203834315,0 9.284041388245161,45.61436853085502,0 9.284029749060526,45.61429899201666,0 9.284018308858439,45.6142214242111,0 9.284008605765411,45.61415515633533,0 9.283998466359716,45.61407832333246,0 9.283986913130523,45.61400788975999,0 9.283977869700838,45.61394645372964,0 9.28397136583715,45.6139024595421,0 9.283963478314234,45.61384237109426,0 9.283956186561632,45.6137929844237,0 9.283947666984009,45.61374799107171,0 9.283942678986515,45.61370806361624,0 9.283938130952265,45.61367719512418,0 9.283932430769879,45.61364393569959,0 9.283927609926074,45.61361079242114,0 9.283917921068879,45.61355117783145,0 9.283908997090741,45.61349361995626,0 9.283900781897657,45.61344158409445,0 9.283892422827979,45.61338570969287,0 9.283882705215644,45.61332960341489,0 9.283876725953998,45.61327838681187,0 9.283868562940714,45.61321789419913,0 9.283862991517891,45.61316886718931,0 9.283854983452599,45.61312270759294,0 9.283850239609082,45.61308027474474,0 9.283843401502761,45.61304392029192,0 9.283836110075978,45.61299892536201,0 9.283830481403969,45.61295656813859,0 9.283823148577284,45.61292186574236,0 9.283816772349859,45.61288023672763,0 9.283810661393417,45.61283909404179,0 9.283805367228251,45.61279695686848,0 9.283799919094747,45.6127551128393,0 9.283793522959844,45.61271103422958,0 9.283788777995223,45.61267389969253,0 9.283782589573148,45.61263827095843,0 9.283779360760251,45.61260617212397,0 9.283774422699132,45.6125714098272,0 9.28376967043449,45.61254759495441,0 9.283766422954765,45.61252152926593,0 9.283764275247293,45.61249998985225,0 9.283760744002215,45.61247814089126,0 9.283755097365798,45.61244860388015,0 9.283743906112573,45.61241218882601,0 9.283735297429986,45.61238797865344,0 9.283725154972252,45.61236314223288,0 9.283715754506447,45.61234208799952,0 9.283705395726853,45.61232015946419,0 9.283697073405321,45.61230242759954,0 9.283686665561195,45.6122828229771,0 9.283677270225226,45.61226847667954,0 9.283667973012486,45.61225369614365,0 9.283658115283853,45.61223944361286,0 9.283650428830679,45.61222822047812,0 9.283640819761219,45.61221717231112,0 9.283632713581991,45.61220661695859,0 9.283624091607535,45.61219550074662,0 9.283604059029059,45.6121747099745,0 9.283586083401014,45.61215708348104,0 9.283570708944646,45.61214214011404,0 9.283555270870828,45.6121268103277,0 9.283538429965617,45.61211298825651,0 9.283523715493356,45.61210008901487,0 9.283508325398618,45.61208881992934,0 9.283492916880697,45.61207793208287,0 9.283477673173039,45.61206635011494,0 9.283462063420469,45.61205573053622,0 9.283449394289585,45.61204630705269,0 9.283430328149137,45.61203400555227,0 9.283414295212399,45.61202480163202,0 9.283400939914891,45.61201594219624,0 9.283381740200454,45.61200577643941,0 9.283364142178455,45.61199602610375,0 9.283344722323509,45.61198509753932,0 9.283329203159276,45.6119768130163,0 9.283307240499227,45.61196627902973,0 9.283287268704427,45.6119557154571,0 9.283263860820837,45.6119448715792,0 9.283245870342389,45.61193701891128,0 9.283228551271691,45.61192947719717,0 9.283210173076586,45.6119209657865,0 9.283189051589307,45.61191255595848,0 9.283169547302382,45.61190380030099,0 9.283152261962362,45.61189772747848,0 9.283130521987982,45.61188942696523,0 9.283110647414514,45.61188298437837,0 9.28307613846092,45.61187231506052,0 9.283043683678818,45.6118642068061,0 9.283014640061108,45.61185789447312,0 9.282985828959681,45.61185259080976,0 9.282962286222823,45.61184727553351,0 9.282936254397987,45.61184352629922,0 9.282907308401068,45.61183881250546,0 9.282878334217674,45.6118350517376,0 9.282845610420383,45.61183058458942,0 9.282810746394697,45.61182743387158,0 9.282780333983228,45.61182440681138,0 9.282745669910074,45.61182141197909,0 9.282715714217209,45.61181915674998,0 9.282682432446469,45.611820175253,0 9.282645625406714,45.61181856153623,0 9.282609523827727,45.61182146552949,0 9.282570817227603,45.61182338521945,0 9.282536130587262,45.61182615093648,0 9.282497413901465,45.61182910278286,0 9.282462298569582,45.61183356058581,0 9.282426098803118,45.61183924894328,0 9.282395967498086,45.61184399814188,0 9.282369056929035,45.61184874707754,0 9.28230479975867,45.61186019747183,0 9.282276717090678,45.61186639479249,0 9.282241029646798,45.61187566123688,0 9.282205273766941,45.6118829988129,0 9.282169965857864,45.61189160414127,0 9.282135846780621,45.61190199081641,0 9.282089698586276,45.61191412562108,0 9.282049925460642,45.61192548468148,0 9.282009550158222,45.61193930910585,0 9.281967729417271,45.6119541039615,0 9.281927199982063,45.61196821080259,0 9.281884852534034,45.61198395355057,0 9.281851709441824,45.61199751636096,0 9.281812928863197,45.61201163212418,0 9.281778841638173,45.61202804060287,0 9.281742502280011,45.6120449032976,0 9.281698030455148,45.61206897330144,0 9.281663945175708,45.61208594887878,0 9.281631903685248,45.61210473137089,0 9.281600774767444,45.6121233005048,0 9.281568346390181,45.61214283430027,0 9.281532387441661,45.6121655924705,0 9.281496367064822,45.61218922445014,0 9.281471011256968,45.61220780971983,0 9.281443622461357,45.61222715212703,0 9.281415369673226,45.6122472285833,0 9.281394588630182,45.61226336002513,0 9.281370749648172,45.6122812596979,0 9.28135161178284,45.61229727848104,0 9.281330851075026,45.61231375783214,0 9.281306960407104,45.61233251543928,0 9.281285836408093,45.61235199800751,0 9.281268233767667,45.61236844219311,0 9.281247364222896,45.61238782063147,0 9.281225812187818,45.61241205173573,0 9.281202062325921,45.61243408916769,0 9.281177872312869,45.61245828883941,0 9.281159454396517,45.61247838245311,0 9.281131321072047,45.61250624359833,0 9.281108054183031,45.61253211336364,0 9.28108602689208,45.61255922417312,0 9.281062729499745,45.61258875549866,0 9.281038815097327,45.61261883499279,0 9.281013271193356,45.61265411895107,0 9.280990096541597,45.61268745504263,0 9.280963842241064,45.61272702157229,0 9.280940363899052,45.61276413695132,0 9.280921846856454,45.61279677408408,0 9.280899880157294,45.61283386005241,0 9.280884443307976,45.61286330440542,0 9.280865273143439,45.61289881195665,0 9.28084327163964,45.61294665672109,0 9.280828767040898,45.61297751838887,0 9.280814535241779,45.61300382924017,0 9.280798567602528,45.61303123602578,0 9.280789431908726,45.61305110597985,0 9.280778129514026,45.61307469107794,0 9.280767870792335,45.6130964164936,0 9.280756762715455,45.61312537822957,0 9.280746496069863,45.61315514166624,0 9.280738805945006,45.61318481737588,0 9.280731356203082,45.61320637105154,0 9.280724695791541,45.6132286128516,0 9.280717828931419,45.61324828806929,0 9.280709233701112,45.61327745657471,0 9.280704595842874,45.61329701916073,0 9.28070000237431,45.61331405605331,0 9.280694113977839,45.61334324992871,0 9.280687577954495,45.61336928885525,0 9.280680178469712,45.61340089838331,0 9.28067579986639,45.61342827248012,0 9.280668161910523,45.61345712077696,0 9.280665286411406,45.61348166699716,0 9.280662002459854,45.61350583746151,0 9.280658936706722,45.61353280996136,0 9.280653656917577,45.61356437439468,0 9.280650625646942,45.61359528329815,0 9.280646642538459,45.61362132367994,0 9.280645842767751,45.613647225094,0 9.280643515058884,45.61367638383232,0 9.280638605374005,45.61371079333497,0 9.280638048706374,45.61374475946314,0 9.280632772070685,45.61378842675057,0 9.280632437919397,45.61382890346142,0 9.280631110460934,45.61387568445799,0 9.280631338676521,45.61392771488131,0 9.280630956710443,45.61397471828485,0 9.280628161966307,45.61401341384467,0 9.280625845237157,45.6140677620448,0 9.280624643952267,45.61412439019102,0 9.28062456932804,45.61418557143025,0 9.280624627459,45.6142116162064,0 9.280625427450072,45.61424558279418,0 9.280627040204802,45.61427837910684,0 9.28062951955199,45.61431616025963,0 9.280630015757247,45.61435374120671,0 9.280630925792954,45.61440092396414,0 9.280633382458925,45.61444425690285,0 9.280632430424694,45.61449422718113,0 9.280632805860096,45.61454795447588,0 9.280631114127683,45.61459399599681,0 9.280630822666867,45.61464682293006,0 9.280629597457752,45.61469139761704,0 9.280628285682884,45.61474173631414,0 9.280626020373564,45.61480003558373,0 9.280623749302872,45.61485029657122,0 9.280623875082238,45.61489234023199,0 9.280623835641729,45.61493412011932,0 9.280624008571278,45.61496999286314,0 9.280623339555836,45.61502451299788,0 9.280624958572236,45.61506922047023,0 9.280624409119334,45.61512002499104,0 9.2806222969669,45.61518504122964,0 9.280621475628283,45.61525159088887,0 9.280623574510372,45.61533179581682,0 9.280626987622544,45.6153932581519,0 9.280631125849405,45.61544453287286,0 9.2806305654741,45.61548500777095,0 9.280640920229732,45.61563918062834,0 9.280646834107859,45.61569404537487,0 9.280647824916354,45.61575482718997,0 9.280653588583657,45.61579021886956,0 9.280657661945106,45.61582335092903,0 9.280661820125486,45.61586790899555,0 9.280664648107615,45.61590620967979,0 9.280669272931299,45.6159498510107,0 9.280673872832999,45.61598661601673,0 9.280678746368034,45.6160236715445,0 9.280681295039727,45.61604259246958,0 
			</coordinates>
		</LineString>
		<atom:link rel="app" href="https://www.google.com/earth/about/versions/#earth-pro" title="Google Earth Pro 7.3.7.1155"></atom:link>
	</Placemark>
</Document>
</kml>
