<?xml version="1.0" encoding="UTF-8"?>
<kml xmlns="http://www.opengis.net/kml/2.2" xmlns:gx="http://www.google.com/kml/ext/2.2" xmlns:kml="http://www.opengis.net/kml/2.2" xmlns:atom="http://www.w3.org/2005/Atom">
<Document>
	<name>Right_Boundary_Data.kml</name>
	<StyleMap id="m_ylw-pushpin">
		<Pair>
			<key>normal</key>
			<styleUrl>#s_ylw-pushpin</styleUrl>
		</Pair>
		<Pair>
			<key>highlight</key>
			<styleUrl>#s_ylw-pushpin_hl</styleUrl>
		</Pair>
	</StyleMap>
	<Style id="s_ylw-pushpin">
		<IconStyle>
			<scale>1.1</scale>
			<Icon>
				<href>http://maps.google.com/mapfiles/kml/pushpin/ylw-pushpin.png</href>
			</Icon>
			<hotSpot x="20" y="2" xunits="pixels" yunits="pixels"/>
		</IconStyle>
	</Style>
	<Style id="s_ylw-pushpin_hl">
		<IconStyle>
			<scale>1.3</scale>
			<Icon>
				<href>http://maps.google.com/mapfiles/kml/pushpin/ylw-pushpin.png</href>
			</Icon>
			<hotSpot x="20" y="2" xunits="pixels" yunits="pixels"/>
		</IconStyle>
	</Style>
	<Placemark>
		<name>Right_Boundary</name>
		<styleUrl>#m_ylw-pushpin</styleUrl>
		<LineString>
			<tessellate>1</tessellate>
			<coordinates>
				9.280869054625327,45.61605327682534,0 9.280883618142099,45.61613268238373,0 9.28089757094841,45.6161963478685,0 9.280906255969692,45.6162557666211,0 9.280912433767925,45.61631827137514,0 9.280925622315998,45.61636987310505,0 9.280941132849396,45.61646223933388,0 9.280949877556514,45.61653556247149,0 9.280964566801435,45.61665022320506,0 9.280979710522193,45.6167313869544,0 9.280997682175578,45.61683100512997,0 9.281012037031362,45.6169338888772,0 9.281030562941467,45.6170686066163,0 9.28104590555211,45.6172073511325,0 9.281077744036638,45.61739459899811,0 9.281091944501643,45.61755678942299,0 9.28110930191357,45.61769657709024,0 9.281120967955163,45.61778990730836,0 9.281127928120107,45.6178621813983,0 9.28113632699862,45.61794712771032,0 9.281150871868949,45.61805969002641,0 9.281173433753869,45.61819929707362,0 9.281182927137287,45.61825948919548,0 9.281201021311547,45.6183319496369,0 9.281211266797607,45.61844560161798,0 9.281225344348552,45.61855106906138,0 9.28124275416552,45.6186622521965,0 9.281256507721833,45.61876897492019,0 9.281268089176848,45.61886329863717,0 9.281295518754318,45.61898945173842,0 9.281299224304805,45.61905911701245,0 9.281317922660028,45.61914683821841,0 9.281330848488697,45.61924554131329,0 9.281349821116144,45.61934271698158,0 9.281375439617484,45.61947683919364,0 9.281386717333806,45.6195813171305,0 9.281397535969953,45.61973237214225,0 9.281422832325783,45.61988101396479,0 9.281438828739816,45.62002791449152,0 9.281456251280007,45.62012459128622,0 9.281470560545419,45.62019974513361,0 9.281479818379978,45.62028260629478,0 9.281486441322592,45.62037229668698,0 9.28147972726884,45.62048235692093,0 9.281484434385217,45.62057626919881,0 9.281508391645772,45.62071029693441,0 9.281520760047975,45.62083578707676,0 9.281551183552271,45.62109558665795,0 9.281569808824056,45.62126026906795,0 9.281586489960327,45.62140436044128,0 9.281599836219126,45.62153433819537,0 9.28161673630132,45.6216781835395,0 9.281626926569068,45.62180528686862,0 9.281643897763498,45.6219088752102,0 9.281637610118054,45.62196458244374,0 9.28166898668386,45.62214326240487,0 9.281679803067348,45.62221455690045,0 9.281679467461505,45.62227513540611,0 9.281693239180171,45.6223562837139,0 9.281698625907994,45.6224093763192,0 9.281705868836831,45.62246070045291,0 9.281713690993513,45.62251590814574,0 9.281720659139413,45.62258122832591,0 9.281728186058881,45.62264534191815,0 9.281740650381476,45.62271566457174,0 9.281742880368331,45.62277138723589,0 9.281752108972633,45.62282182762394,0 9.281761247153383,45.62286358516786,0 9.281765287289929,45.62290244382163,0 9.281767810056404,45.62293517839742,0 9.281771635803505,45.62298654590796,0 9.281781884542262,45.62304211005873,0 9.281785221384784,45.6230958893788,0 9.281793526276958,45.62314397571549,0 9.281805992791099,45.62322048897724,0 9.281811354901455,45.6232692830764,0 9.281820845222864,45.62332481878369,0 9.281829187095196,45.62338194343658,0 9.281835041284609,45.62343501875083,0 9.281836907663761,45.62347733960307,0 9.281846499219771,45.62352217506833,0 9.28185455707875,45.62355983615119,0 9.281860601308088,45.62360729168113,0 9.281865255369404,45.62365598903151,0 9.281866301331281,45.62368906886326,0 9.281874489076083,45.62373454106388,0 9.281878567950482,45.62376958411078,0 9.281886860694753,45.6238234397871,0 9.281890986729447,45.62387356412101,0 9.281896484975265,45.6239247817051,0 9.281896835228631,45.62396917605755,0 9.28191187428631,45.62403001326445,0 9.281913171520051,45.62406811591803,0 9.281917749238616,45.62410800717551,0 9.281924057867155,45.62413953815553,0 9.281927234717138,45.62416634801589,0 9.281929955839146,45.62419237068355,0 9.28193366244173,45.62421830430119,0 9.281935193985802,45.62424934155844,0 9.281938410455792,45.62428472689562,0 9.281943823270709,45.62432605007612,0 9.281949625584518,45.62437590348364,0 9.281961459442671,45.62441470329176,0 9.281970953212461,45.62445430928788,0 9.281984563998019,45.6244777961731,0 9.28200810302123,45.62449998038844,0 9.282032093773516,45.62451423469044,0 9.282060626674017,45.62452292050693,0 9.282083750038922,45.62452762598513,0 9.282103540754187,45.62452638194501,0 9.282122376021732,45.62452459933887,0 9.282144608498912,45.62452367239818,0 9.282163744041462,45.62452115180658,0 9.282183793251775,45.62451902335344,0 9.282202583200792,45.6245159934431,0 9.282222636011085,45.62451728003053,0 9.282245488837436,45.62451766870375,0 9.282262656782841,45.62451342102904,0 9.282279980068386,45.62451376656156,0 9.282302511826666,45.62451493684448,0 9.282322239438709,45.62451519319319,0 9.28234559028121,45.62451738311694,0 9.282368028578929,45.62452277798076,0 9.282390355803297,45.62452716191004,0 9.282411961181445,45.62453487322473,0 9.282430440354137,45.62454473472121,0 9.282451958280557,45.62455602372366,0 9.282469114425062,45.62456952825963,0 9.282484676817457,45.62458447451211,0 9.282503087339325,45.62460156801335,0 9.282520009125337,45.62462043479069,0 9.282532331001336,45.62464654378418,0 9.282543124369376,45.62467121841664,0 9.282543743995866,45.62468893404949,0 9.282541140741934,45.62470419282229,0 9.282541152940775,45.62472040211965,0 9.282536988447985,45.62474067983707,0 9.282530254584877,45.62476049237728,0 9.282524403424301,45.62478635584529,0 9.282510298179449,45.62481299240599,0 9.282501406102256,45.62483574942549,0 9.282493053140993,45.62486429992947,0 9.282480239058238,45.62489516304105,0 9.282473019467332,45.62491422775658,0 9.282462598685534,45.62494259714354,0 9.282458427209351,45.6249653619609,0 9.282447630531578,45.62498906360474,0 9.282440464750849,45.62501350074039,0 9.282433637149705,45.62503787476253,0 9.282423992593451,45.62505995065737,0 9.282414114625068,45.6250842018048,0 9.282402830591462,45.62510992424992,0 9.28239055210855,45.62514186959195,0 9.282381073770615,45.62516900596002,0 9.282369493185605,45.62520303021227,0 9.282355880402125,45.62523622108823,0 9.282342023670683,45.62527921872161,0 9.282326875577722,45.62531990909145,0 9.28231329941293,45.62535011658814,0 9.282298840246826,45.62538484114773,0 9.282287972094647,45.62541550862694,0 9.282271600238637,45.62545292746037,0 9.282261206166712,45.62549788862685,0 9.282244572409962,45.62553384864254,0 9.282229663842759,45.62557905633681,0 9.282217195008295,45.62562344560436,0 9.28220363639908,45.6256633894176,0 9.282193183376933,45.62570763614537,0 9.282182130943644,45.62575900841725,0 9.282171577694269,45.62580325463313,0 9.282166092784083,45.6258495033272,0 9.282158654085066,45.62592839999046,0 9.282148726012982,45.62597522746758,0 9.282148438813898,45.62602227355177,0 9.28214636332104,45.62606204707779,0 9.282148247777611,45.62610584622295,0 9.282143786292011,45.62616363668119,0 9.282148545013927,45.62621360396022,0 9.282152377883568,45.62627258401621,0 9.28215753252632,45.62632387093389,0 9.282161244764877,45.62637378114511,0 9.282166764057781,45.62641826473232,0 9.282172511652719,45.62646621704337,0 9.28217817996506,45.6265093061702,0 9.282180171949916,45.62655081376313,0 9.282185739992224,45.62658825674901,0 9.282188263642691,45.62662297686384,0 9.282197014758264,45.62667055733954,0 9.282200705041642,45.62671833252585,0 9.282206695524213,45.62676622987054,0 9.282213918192916,45.62681250515621,0 9.282217537354807,45.62687194124045,0 9.28222744840153,45.6269240701889,0 9.282232800665803,45.62697530204694,0 9.282240925637996,45.62703093063927,0 9.282249047157134,45.62709783151506,0 9.282254622339391,45.62715946456238,0 9.282261635650443,45.62720316691168,0 9.282269673073049,45.62725714667198,0 9.282277070027478,45.62731710570071,0 9.282288857776475,45.62741052286941,0 9.282299698092761,45.6274864858583,0 9.282312769730272,45.62754704234485,0 9.282325961745752,45.62760009258101,0 9.282341854024166,45.62766100062015,0 9.282363200725252,45.6277175531842,0 9.282385726550597,45.62778330905793,0 9.282403351614585,45.62783083338007,0 9.282429358245034,45.62788339337521,0 9.282457442050756,45.62794053756188,0 9.282478811109637,45.627985668992,0 9.282500268987992,45.62802270834467,0 9.28252429835203,45.62806443676669,0 9.28254169634114,45.62811239284896,0 9.282572917153916,45.6281515425222,0 9.28259015135508,45.6281793625697,0 9.282611303936628,45.62820813886687,0 9.28264077645893,45.62825065515453,0 9.28266784288429,45.62829102747408,0 9.282699901409766,45.62833529128505,0 9.282739307169541,45.62838415631354,0 9.282780351997458,45.62843224479347,0 9.282826310335892,45.6284890043885,0 9.282876568581237,45.62854379807661,0 9.282922759586398,45.62858441681134,0 9.282970516579859,45.62863289489937,0 9.283014561753006,45.62867695128918,0 9.283060970967238,45.62871992863543,0 9.283122461875204,45.62876801321609,0 9.283175603403201,45.62882080982944,0 9.283253023336986,45.62886918152763,0 9.28331906617948,45.62892183608316,0 9.283391309459459,45.62897390871843,0 9.283469872868658,45.62902261894979,0 9.283544145797704,45.62907160051617,0 9.283607347223956,45.62911415432416,0 9.283683678705351,45.62914787878539,0 9.283740950157952,45.62918887879593,0 9.283784811738101,45.62921105646473,0 9.283825853600629,45.62923179947337,0 9.283861502812051,45.62924912963877,0 9.283899583326233,45.62927220556767,0 9.283942781883445,45.62929043595386,0 9.283975738434613,45.62930632736963,0 9.284016527167545,45.62932273618996,0 9.284057410178661,45.62934397783743,0 9.284098759356183,45.62936050791807,0 9.284142419149443,45.62937976246479,0 9.284186026566061,45.62939661909266,0 9.284229477047315,45.62941730619659,0 9.284274892109245,45.62943437116976,0 9.284318190408232,45.62945069905427,0 9.284360939643024,45.62946973431941,0 9.284411892259449,45.62949134619642,0 9.28449182497058,45.62951688020579,0 9.284544483869661,45.62953783418074,0 9.284607424065637,45.6295572140607,0 9.284669673296207,45.62957698163629,0 9.284762336042043,45.62960762323124,0 9.284822584387335,45.62962234329669,0 9.284880215675956,45.62964146611942,0 9.284934262843738,45.62965359187934,0 9.284981269286517,45.62966570389773,0 9.285032001903005,45.6296818619458,0 9.285078286665387,45.6296919388226,0 9.285160150276797,45.62971301376132,0 9.285280315132622,45.62973749027277,0 9.285331299822733,45.62975075084304,0 9.285394487404259,45.62976221843838,0 9.285459811682566,45.62977496786891,0 9.285527319172724,45.62978917078709,0 9.285606262955534,45.629799866517,0 9.285687157661847,45.62981329544154,0 9.28577243706169,45.62982632644711,0 9.285842571152505,45.6298337316762,0 9.285926742567362,45.62984354569338,0 9.286002217126466,45.62985292862243,0 9.2860792971866,45.62985932784345,0 9.286158866837308,45.62986835371805,0 9.286241429397677,45.62987573503337,0 9.286316862119946,45.62988090945247,0 9.286385748627904,45.62988722645379,0 9.286458946291633,45.62988931150029,0 9.286538021670678,45.62989433226272,0 9.286618333867251,45.62990092913395,0 9.286694698290695,45.62990800832067,0 9.286760762610671,45.62991114000031,0 9.286819341802728,45.62991770161558,0 9.286874922687883,45.62991408242283,0 9.286967237260288,45.6299212714775,0 9.287047894306092,45.6299256363759,0 9.287123773517186,45.62993001219125,0 9.287202553051461,45.62993413249038,0 9.287344858001145,45.62994464572862,0 9.287473808391811,45.62994934511075,0 9.287561222099523,45.62995563260208,0 9.28767674296158,45.62996067370777,0 9.287805659498964,45.62996773270456,0 9.287920574888069,45.62997471902818,0 9.288059309278085,45.62998816609647,0 9.288162895894709,45.62998791035012,0 9.288278226867542,45.62999709900815,0 9.288365657387525,45.63000382967342,0 9.288438614182549,45.6300057931803,0 9.288589614304897,45.630014835617,0 9.288669515282031,45.63001791798145,0 9.288754664024847,45.63002303992132,0 9.288832383985895,45.6300298841557,0 9.288899986567028,45.63003138446221,0 9.288971027800804,45.6300331302762,0 9.289038063618001,45.63003731128955,0 9.289129823622435,45.63004091950755,0 9.289221869803672,45.63004711731308,0 9.289334945393204,45.63005344976949,0 9.289416144206598,45.63005653415104,0 9.289485671964229,45.6300572277904,0 9.28958477553158,45.63006126420236,0 9.289668701840444,45.63006602956343,0 9.289730907929544,45.63006773155539,0 9.289811688830651,45.63007137019257,0 9.289887661479185,45.63007137749742,0 9.289968990533355,45.63007564155102,0 9.290049979590236,45.63007669804194,0 9.290123126263335,45.63008382078051,0 9.290222842697325,45.63008653068702,0 9.290311922207552,45.63008780847253,0 9.290388395634963,45.63009211869596,0 9.290445602206184,45.63009440295016,0 9.290510574541695,45.63009811088304,0 9.29057158606237,45.63009842623589,0 9.290644298113611,45.63009793530907,0 9.290686348586574,45.63010264014697,0 9.290735301227775,45.63010586839412,0 9.290774022671247,45.63010947441775,0 9.290816789539713,45.63010636422336,0 9.29086048514235,45.63010725441536,0 9.290902278995567,45.63010858029615,0 9.290941952301807,45.63011227491978,0 9.290990138469763,45.63011303075938,0 9.291048893191132,45.63011314221042,0 9.291102928275919,45.63011523875809,0 9.291146220048406,45.63011971766648,0 9.291182586856671,45.63012532534495,0 9.291216013075104,45.63012555265536,0 9.291240659017729,45.63012852865323,0 9.291276330645461,45.63013058602247,0 9.291311626879178,45.63013165830239,0 9.291345685375221,45.63013741878559,0 9.291369679729504,45.63014225563811,0 9.291386674782249,45.63014562411627,0 9.291407449843401,45.63014973873652,0 9.291423830629128,45.6301560591005,0 9.291438740987356,45.63015995063413,0 9.291452967626544,45.6301669864194,0 9.291466643762906,45.63017537583517,0 9.291478673679389,45.63018307873089,0 9.291492384414116,45.63019439697692,0 9.291502859850336,45.63020527763493,0 9.291511238518655,45.63021836313536,0 9.291522321594453,45.63023266891194,0 9.291528770717907,45.63024737775287,0 9.291536600563219,45.63026200458406,0 9.291542431084805,45.63027747993509,0 9.291551602621496,45.63029352387099,0 9.291560968187278,45.63031243581439,0 9.291568697704664,45.63033494689034,0 9.291581495160619,45.63035771707242,0 9.29159476465794,45.63038396756705,0 9.291605373310077,45.63040863634158,0 9.2916115476456,45.63042701081871,0 9.291623436159753,45.63044247090674,0 9.291641251674456,45.63045435711147,0 9.29165361643841,45.63046536542198,0 9.291668706710741,45.63047908388876,0 9.291686074403545,45.63049131465129,0 9.29170367946911,45.63050418929863,0 9.291725798739346,45.63051510534373,0 9.291742005502837,45.63052400966225,0 9.29176458123556,45.63052967652347,0 9.29179416822392,45.63053284593516,0 9.291823603374976,45.63053183722372,0 9.291855862294332,45.6305375738808,0 9.29188900771528,45.63054233382949,0 9.291926102961714,45.63054776844494,0 9.291997260388424,45.63055442717928,0 9.292059127523359,45.63056554147938,0 9.292131274088582,45.63057551730701,0 9.292207230924323,45.63058701545597,0 9.292288702230724,45.63060292274126,0 9.292378677517185,45.63060963321093,0 9.292430705888737,45.63062557452386,0 9.292497478207171,45.63063663262605,0 9.292579900762332,45.63065256432416,0 9.292656599609785,45.63066832667537,0 9.292739062384515,45.63068796162506,0 9.292806232402523,45.63070165698982,0 9.292881586901542,45.63072081567765,0 9.292956572359186,45.63073932928435,0 9.293014956790335,45.63075341270547,0 9.293088818015532,45.63076870793332,0 9.293180327665269,45.63079008570114,0 9.293282819405643,45.63081277438091,0 9.293368016647106,45.63083235227733,0 9.29345489673565,45.63085215354504,0 9.293554443252699,45.63087672090239,0 9.293642314025178,45.63089682116378,0 9.293740185392886,45.63092022433945,0 9.293813499283246,45.630938636914,0 9.293893657621153,45.63095689006097,0 9.293955386417247,45.63097221705818,0 9.294029399655926,45.63099129605736,0 9.294097155846844,45.63100477493529,0 9.294160225481978,45.63101911499743,0 9.294247414411174,45.63104008820692,0 9.294352924055376,45.63106114239937,0 9.294456953265103,45.63108149224076,0 9.294535246412988,45.63110106142305,0 9.294631726768692,45.63112914100317,0 9.294737407980833,45.63115327998578,0 9.294826860177462,45.63117595020151,0 9.294914661187066,45.6311976612613,0 9.294994689785973,45.63120501056411,0 9.295090000863004,45.63122699739666,0 9.295184024189588,45.63124832821222,0 9.295235804109002,45.6312721151841,0 9.295259777279469,45.63127778921387,0 9.2952859666282,45.63128420810515,0 9.295313786201584,45.63128903768578,0 9.295339992651035,45.63129263262471,0 9.295369720753994,45.63129966041826,0 9.295399267341772,45.63130642243921,0 9.295434907856331,45.63131001969903,0 9.295465433732037,45.63131617257901,0 9.295499881607769,45.6313205164919,0 9.29553032112192,45.63132261542066,0 9.295565239361778,45.6313233128,0 9.295597466750676,45.63132473003203,0 9.295632790916848,45.63132546314689,0 9.295662149458026,45.63132465227991,0 9.295685242347647,45.63132215389862,0 9.295711781071144,45.63131885364827,0 9.295739043283033,45.63131872881578,0 9.29576200692534,45.63131782939655,0 9.295786589192922,45.63131319062424,0 9.295811313208997,45.63131012746879,0 9.295832027445883,45.63129646957903,0 9.295877198406775,45.6313004920416,0 9.295906129023457,45.63129497579665,0 9.295932379067356,45.63129115797503,0 9.295964076784166,45.63128269496468,0 9.295995743754752,45.63127247323006,0 9.296059104586814,45.63125186328521,0 9.296092999360621,45.6312363057601,0 9.296117675362883,45.6312251327664,0 9.296144086476838,45.63121503489919,0 9.296165365942567,45.63120427498965,0 9.296191319191378,45.63119313170267,0 9.296212366104811,45.63117419483698,0 9.296240295054922,45.63115892513148,0 9.296318563580662,45.63109818291306,0 9.296331888539919,45.63108744963912,0 9.296343317794681,45.63107708580409,0 9.296361577841397,45.63106136654102,0 9.296376597382828,45.63104613802791,0 9.296392086956491,45.63103214305946,0 9.29640830463655,45.63101560485115,0 9.296429521823697,45.63098748243173,0 9.296448642682932,45.63096446230423,0 9.296465936553648,45.63093960790374,0 9.296479634384479,45.6309141490487,0 9.296493202549589,45.63088347648192,0 9.296502163712441,45.63085500472796,0 9.296509325438674,45.63083075246112,0 9.296517749872045,45.63080615025093,0 9.296523672647574,45.6307794358181,0 9.29652688778555,45.6307600548481,0 9.296527653020446,45.63074051776027,0 9.296529766264864,45.63073023141511,0 9.296538924010347,45.63066360477399,0 9.296549366922362,45.63058573844467,0 9.296563825003673,45.63051006083899,0 9.296569904894625,45.63043649188361,0 9.296578465526448,45.63037744183998,0 9.296585017324393,45.63032707945251,0 9.296591365288446,45.63026278582863,0 9.296596332045992,45.63021602988724,0 9.296602394505666,45.63017257105744,0 9.296608087043527,45.63012206826247,0 9.296615753585389,45.6300773680447,0 9.29661988764896,45.63004035038197,0 9.296624576082541,45.63000246709074,0 9.296629104351002,45.62997152283048,0 9.296636423377967,45.62991390431116,0 9.296641848511269,45.62985662065974,0 9.296652560995469,45.62980048943345,0 9.296656343914647,45.62975746614755,0 9.296661528981263,45.62971312144074,0 9.296669071412323,45.62966386924355,0 9.296674465227417,45.62962639497149,0 9.296678918261758,45.62958666342325,0 9.29668322681789,45.62955719323747,0 9.29668577180713,45.62952936773775,0 9.296714998898857,45.62928348385772,0 9.296722906394654,45.62923569516002,0 9.296728672640436,45.62919806195899,0 9.296734515456047,45.6291546086242,0 9.296740659023461,45.62911391370558,0 9.296746534677585,45.62907668083727,0 9.296754494996408,45.62900279520002,0 9.296764728871896,45.62892797729976,0 9.296772697793958,45.62886158661569,0 9.296777431574625,45.6288271397807,0 9.296782725443089,45.62878831604681,0 9.29678716883908,45.62875573380993,0 9.296791962806184,45.62872796965478,0 9.296793508710888,45.62870298642547,0 9.296797434432435,45.62868126980734,0 9.296797590719979,45.62866057673916,0 9.296794805681898,45.62863674118045,0 9.296791578668742,45.62861176179666,0 9.296788816417394,45.62858653971162,0 9.296784494596613,45.62856792323592,0 9.29678056594363,45.62854513967119,0 9.296769532623832,45.6285222070737,0 9.296754746066293,45.62849727372202,0 9.296737655104767,45.6284776294784,0 9.296721121204799,45.62845853294071,0 9.296707686965817,45.62844365244233,0 9.296693485960265,45.62843354561043,0 9.29668217257232,45.62842258170633,0 9.296666066671445,45.62841244481139,0 9.296647938919907,45.6284022551885,0 9.29663049843473,45.6283957055327,0 9.296618246632198,45.62838813854968,0 9.296603340333663,45.62838096030877,0 9.296593407662117,45.62837598377415,0 9.296584688636095,45.62836880865589,0 9.296568060988777,45.62836134880502,0 9.296539614026472,45.62834985678454,0 9.296510256010054,45.62833460569283,0 9.296476683164149,45.62832228531591,0 9.296448516417115,45.62831228326782,0 9.296417473979155,45.62830167725785,0 9.296394919972492,45.62828985220059,0 9.296367126975248,45.6282757265345,0 9.296332338562138,45.62826782167824,0 9.296296527358077,45.62825318599205,0 9.296261887548596,45.62823923223532,0 9.296228232273769,45.62822689539752,0 9.296197182877675,45.62821483517786,0 9.296164542268599,45.6282040098634,0 9.296132359713358,45.62818998037444,0 9.296077085643496,45.62816752097632,0 9.296010868051248,45.62813983573627,0 9.295947818149347,45.62811820854514,0 9.295896383500487,45.62809318033833,0 9.295833387418497,45.62807032580379,0 9.295771950122946,45.62804734189167,0 9.295706932429557,45.62802374697537,0 9.295663178655854,45.62800184419665,0 9.29559545381122,45.62797663556029,0 9.295467718784085,45.62792763389291,0 9.29534983253814,45.62788116197899,0 9.295242946379796,45.62784173267735,0 9.295140608473067,45.62779974468473,0 9.29506000440205,45.62776976301039,0 9.294976157715116,45.62773739342298,0 9.294906228286468,45.6277100192105,0 9.294829617448116,45.62768050052626,0 9.294761278967181,45.62765380857455,0 9.29470522245383,45.62763382877381,0 9.294591513244821,45.62758829938875,0 9.294480195244542,45.62754522914718,0 9.294410314801251,45.62751743551608,0 9.294010512948287,45.62736146307963,0 9.293900789627319,45.62731793228539,0 9.293831361092797,45.62729082453766,0 9.293693596629719,45.6272398741669,0 9.293594022000317,45.62719848002846,0 9.293510427459349,45.62716632440302,0 9.293321845807414,45.62709560630597,0 9.293159880318534,45.62703007941717,0 9.293020539031605,45.62697501571596,0 9.292923999097598,45.62693689346403,0 9.292775430735485,45.62687692043029,0 9.292677277954782,45.62683284246768,0 9.292473829254075,45.62674091107471,0 9.292301004890716,45.62665775315541,0 9.292189934495813,45.62660410278023,0 9.29208746360522,45.6265507380098,0 9.292009538425193,45.62650540815608,0 9.291925017051412,45.62645851050713,0 9.291841683576891,45.62641184720969,0 9.291735711580893,45.6263502923019,0 9.291654718789239,45.62629929287296,0 9.291591893345412,45.62625982820558,0 9.291530109731207,45.62622186360141,0 9.291452936524882,45.62617698383853,0 9.291416981890173,45.62615570375394,0 9.291370049318584,45.62612371926335,0 9.291323125808146,45.62609619946885,0 9.291288354688582,45.62607413152654,0 9.291220466003869,45.62603399805659,0 9.291189147973061,45.6260155323962,0 9.291158427201074,45.62599266852897,0 9.291126993306527,45.62597451681368,0 9.29108197861855,45.6259492258527,0 9.291045320845551,45.62592642830707,0 9.291007322609595,45.62590358369141,0 9.290977047334447,45.62588459541674,0 9.290949168983559,45.62586604848359,0 9.290896423231274,45.62583524784307,0 9.29079591784506,45.62577401103152,0 9.290676951426944,45.62570050213487,0 9.290579046383291,45.62564165671472,0 9.290525157669041,45.62560857023551,0 9.290486482046116,45.62558393337572,0 9.290441861664346,45.62555687741506,0 9.29039409624259,45.62552833117284,0 9.290306953733181,45.62547388930984,0 9.290238954286668,45.62543156822658,0 9.29019351991748,45.62540500649301,0 9.290131753517485,45.62536699099602,0 9.290086772409847,45.62533950569352,0 9.289988543304617,45.62527755504141,0 9.289877038587097,45.6252137680051,0 9.289763948935194,45.62514183169761,0 9.289680985995577,45.62508948879589,0 9.289582788720605,45.62502976308421,0 9.289492062326907,45.62497442617687,0 9.289426118090676,45.62493401019561,0 9.289392603484906,45.62491322774994,0 9.289085048316313,45.62472277163459,0 9.288991926055051,45.62466934714439,0 9.288921537787015,45.62462549086263,0 9.288803475118254,45.62455346807072,0 9.288710301630509,45.62449527892949,0 9.288629355147073,45.62444682310364,0 9.288531039545854,45.62438582893685,0 9.288448128775023,45.62433304052675,0 9.288240966575689,45.62420968970248,0 9.288158053550543,45.62415666120603,0 9.287894322310438,45.62399433442047,0 9.287702413268519,45.62387667595311,0 9.287559494578616,45.62378882369963,0 9.287411209267606,45.6236998824346,0 9.287332366979989,45.62364830933683,0 9.28715381487021,45.62354293741919,0 9.287058492678351,45.62348102086728,0 9.286961423726334,45.6234217139957,0 9.28687887469966,45.6233710009684,0 9.2868098023241,45.62333064788849,0 9.286745199695494,45.62329247914134,0 9.286690902882349,45.62325645709824,0 9.286586761581466,45.62319743179178,0 9.286509162911615,45.62314911276895,0 9.286460837336815,45.62312193372237,0 9.286426062772247,45.62310102489733,0 9.286395018225672,45.62308152271653,0 9.286374840035554,45.62306737175098,0 9.286346258450116,45.623051484623,0 9.28632007593416,45.62303412196311,0 9.286296272908769,45.62301882195239,0 9.28627350491308,45.62300486730679,0 9.286250079491777,45.6229919131501,0 9.286231993524435,45.62297920200304,0 9.286215880359332,45.62297007136861,0 9.286199661327014,45.62296184172443,0 9.286183556045867,45.62295324322604,0 9.28617003269245,45.62294477284834,0 9.286147084872624,45.62292961200982,0 9.286122587866462,45.6229160590221,0 9.286098860525589,45.62289880773397,0 9.286081153087732,45.62288743018333,0 9.286066022060561,45.62287781723139,0 9.286051702302602,45.62286834471442,0 9.286037081010026,45.62285920342875,0 9.286021888897878,45.62284955548991,0 9.286003803817543,45.62283798771134,0 9.285984308789532,45.62282694455242,0 9.285959981184702,45.62281060791269,0 9.285939335058572,45.62279672213773,0 9.285919108634017,45.62278252410398,0 9.285905883156904,45.62276967313284,0 9.28589302879449,45.62276164409412,0 9.285880783249251,45.62274915615376,0 9.285869930334684,45.62273936917499,0 9.285862892735121,45.6227289313691,0 9.285852838320402,45.62271912996499,0 9.285844125242303,45.62270818388195,0 9.285837957586756,45.62269479379518,0 9.28583055102871,45.62268132812525,0 9.285825997285587,45.62266774881207,0 9.285821975574201,45.62265107047639,0 9.285818662345092,45.62263217327531,0 9.285817335332931,45.62261647125082,0 9.285816964181281,45.62259988616465,0 9.285817282636124,45.62258104416528,0 9.285818496276832,45.62256544868212,0 9.285819113001724,45.62255321836574,0 9.285821353629506,45.62254023811104,0 9.285820794232418,45.62252977502046,0 9.285822369035465,45.62251496687198,0 9.285823438726382,45.62249882664881,0 9.285825487532765,45.62248000290452,0 9.285828897353872,45.62246334642491,0 9.28583054915155,45.62244728858134,0 9.285830815785106,45.62243381151594,0 9.285829484583637,45.62242176133134,0 9.285829698078958,45.62241085441511,0 9.285832251819217,45.62239640225896,0 9.285834768554537,45.62238349770171,0 9.285839756700614,45.62236484213076,0 9.285844393773798,45.62234403181201,0 9.285847614564574,45.62232706244583,0 9.285850788344911,45.62230804274132,0 9.285854198646792,45.62229091067936,0 9.285857041954262,45.62227244830063,0 9.285859647596844,45.62225615768414,0 9.285861738780209,45.62223912526385,0 9.28586298251021,45.6222206669737,0 9.285864891705591,45.62220139192877,0 9.285865226033517,45.62218390151869,0 9.285865864990724,45.62216870584454,0 9.285865130766663,45.62215495881917,0 9.285865706310974,45.62214165058241,0 9.285865392053873,45.62212366881838,0 9.28586400774147,45.62210539740659,0 9.285861117883956,45.62208442611747,0 9.285859820129613,45.62206904525154,0 9.285858149336189,45.62205453820668,0 9.285854680698112,45.62203682193992,0 9.285850767063854,45.62201480422438,0 9.285847642847889,45.62199641680348,0 9.285843497511975,45.62197850001085,0 9.285839786968182,45.62196525157436,0 9.285835346815755,45.62194836391454,0 9.285828424443402,45.62192876069931,0 9.285822206078677,45.62191148251038,0 9.285813862248212,45.62189277385114,0 9.285806401094037,45.62187663898243,0 9.285800097028167,45.6218608399255,0 9.285790219401949,45.62184384657783,0 9.285781852893425,45.62182604331205,0 9.285773466189113,45.62181095448815,0 9.285765697425221,45.62179746633377,0 9.285759994285081,45.62178742600712,0 9.285753605136051,45.62177939362736,0 9.285747063610669,45.62176890634171,0 9.285743590245374,45.62176355599193,0 9.285737913403198,45.62175423689021,0 9.285731569782429,45.62174533955849,0 9.285725237482826,45.62173703566518,0 9.285719467006947,45.62172993832424,0 9.285712610005222,45.62172034661936,0 9.285706028426699,45.62171243920017,0 9.285699828576725,45.62170197439328,0 9.28569567192762,45.62169545618768,0 9.285688908437832,45.62168926392212,0 9.285684111652163,45.62168157812211,0 9.285676469839521,45.62167164747506,0 9.285671223512967,45.62166494734138,0 9.285663528442267,45.62165765293735,0 9.285658572368975,45.62165290483491,0 9.285650481037312,45.6216426690262,0 9.28564176764802,45.62163392570217,0 9.285634167088778,45.62162736602567,0 9.285630303480945,45.62162294290656,0 9.285622354392718,45.62161455670304,0 9.285614542541293,45.62160816273876,0 9.285608051550886,45.62160037508401,0 9.285598104598105,45.62159246456286,0 9.28558940173026,45.62158569126846,0 9.28558265239249,45.62157882308865,0 9.285574868062231,45.62156968174089,0 9.285567007059161,45.62156415534961,0 9.285557134535662,45.62155605201586,0 9.285549018408592,45.62154982922024,0 9.285541796141228,45.6215446991818,0 9.285537391102135,45.62154006963615,0 9.285528748940628,45.6215347525507,0 9.285520545442767,45.62152702473931,0 9.285511553004074,45.62151936996079,0 9.285502616678635,45.62151321823126,0 9.285494778364296,45.62150736119509,0 9.285484107242929,45.62150085900611,0 9.285474375721261,45.62149356891556,0 9.285465004126321,45.62148683540511,0 9.285453254659242,45.62147875969426,0 9.285444737563394,45.6214740699699,0 9.285435010161029,45.62146677614921,0 9.285424069317658,45.62146108868851,0 9.28541520531169,45.62145469228425,0 9.285406462727472,45.62145002787459,0 9.285395892954835,45.6214447215898,0 9.28538794546299,45.62144177656116,0 9.285377408704845,45.62143631183186,0 9.285366127572557,45.62143096875378,0 9.285358351698632,45.62142456916676,0 9.285343803989894,45.62141615714511,0 9.285332700684759,45.6214103129179,0 9.28530974599451,45.6213981856255,0 9.285291389295908,45.6213899281241,0 9.285275154279638,45.62138204132246,0 9.285257017771443,45.62137240698825,0 9.285239542357067,45.62136439206129,0 9.285225265421772,45.62135781828566,0 9.285207574816033,45.62134818588711,0 9.285187955692127,45.62133989852676,0 9.285174070734882,45.621331402553,0 9.285163090531457,45.62132563975971,0 9.285152785953425,45.62131803108326,0 9.285141877717731,45.62131388557536,0 9.285131549221692,45.62130605635396,0 9.285123765769709,45.621300103181,0 9.285114311233455,45.62129432234333,0 9.285108408863383,45.62128927972039,0 9.285094778873027,45.62128077360313,0 9.285083279898075,45.62127083169145,0 9.285071874003926,45.62126008656154,0 9.285061113366943,45.62124936551243,0 9.285051003049261,45.62123895343419,0 9.285043529772603,45.62122999992234,0 9.28503454505803,45.62122107098302,0 9.285027701613499,45.62121125936528,0 9.285019044747376,45.62120095978666,0 9.285012721780765,45.62119145605965,0 9.28500589014245,45.62118239837547,0 9.285000909256247,45.62117368153491,0 9.284994956108012,45.62116268099559,0 9.284989848169062,45.62115413773573,0 9.284985461749592,45.62114712973897,0 9.28498301713956,45.62114096374259,0 9.284979697786627,45.62113450528779,0 9.284971408138638,45.62111900136165,0 9.284962119565407,45.62109932333608,0 9.284956393351324,45.62108336387869,0 9.284950215972415,45.62106608538841,0 9.284942681234941,45.62104847193864,0 9.284937843070454,45.62103506983147,0 9.284933967512419,45.62102141719192,0 9.284926897027781,45.62100561542113,0 9.284922769983195,45.62099327686081,0 9.284921634801087,45.62098509180407,0 9.284918126026016,45.6209754586795,0 9.284916244292866,45.62096712036637,0 9.284902628683687,45.62093149428308,0 9.284894460166903,45.62090717027849,0 9.284891329203216,45.62087730521721,0 9.284888617272175,45.62085412607537,0 9.284882575098955,45.62082866392427,0 9.284878622210616,45.62079839842435,0 9.284874362134126,45.62077513503148,0 9.284869514907786,45.62074780115178,0 9.284864436624872,45.62071704438237,0 9.284855954511858,45.62065991981293,0 9.284848504725272,45.62061845366258,0 9.28484404136411,45.62058742156815,0 9.284839597123856,45.62056062943868,0 9.284835629934838,45.62053679230475,0 9.284830758512832,45.62050947681428,0 9.284827854573564,45.62048903086148,0 9.284825233374345,45.62047058902481,0 9.284822533867308,45.62044816987028,0 9.284819635008134,45.62042893343307,0 9.284815480556752,45.62039835950133,0 9.284811063870675,45.62036857481859,0 9.284806853383396,45.62034259959537,0 9.284802455130475,45.62031201728556,0 9.284797936467371,45.62028326752201,0 9.28479403356355,45.62025672360021,0 9.284788341985802,45.62023209020265,0 9.284784831040646,45.62021023190915,0 9.28478009224531,45.6201821141053,0 9.284775356496818,45.62015452574421,0 9.284770939004884,45.62012879172555,0 9.284767718121964,45.62010061494874,0 9.284762940102265,45.62007609605553,0 9.284759503239371,45.62005351988844,0 9.284754207629559,45.62002877714151,0 9.284751280718947,45.62000671697241,0 9.284743105815291,45.61996730394521,0 9.284737971702278,45.61992895704844,0 9.284733375133452,45.61988581255356,0 9.284730852717175,45.61985049062036,0 9.284727707760002,45.6197954303848,0 9.28472568786483,45.61975667973086,0 9.28471781766326,45.61971302041977,0 9.284708006196201,45.6196638255226,0 9.284703323790698,45.61960937583267,0 9.284692423175807,45.61955621767377,0 9.284684361421922,45.61950878324797,0 9.284671917777068,45.61944400736284,0 9.284665598951285,45.61939809939916,0 9.284659084286218,45.61934875813277,0 9.284647651044384,45.61929406616605,0 9.28463863632915,45.61923022936973,0 9.28463155350742,45.61917952120319,0 9.28461773697804,45.61911721963627,0 9.284612597442743,45.61907101656875,0 9.284605116086409,45.61902415548474,0 9.284596939186372,45.61898054777349,0 9.28458919482382,45.61892763424979,0 9.284582391962806,45.61888140154252,0 9.284575462211812,45.61884462248152,0 9.28457276699846,45.6188044651644,0 9.284566726941206,45.61877048098802,0 9.284559823348349,45.61873509020656,0 9.284542305866403,45.61861847046663,0 9.284537887217198,45.61857568981219,0 9.284532330625391,45.61853362613619,0 9.284526410667587,45.61848913972646,0 9.28451613569983,45.61844859559506,0 9.284509290311014,45.61840552754063,0 9.284501604775905,45.61837022107125,0 9.284497639880493,45.61832941285434,0 9.284493022737605,45.61829773035831,0 9.284487576160515,45.61826519467257,0 9.284481086019291,45.61822823832808,0 9.284477952118714,45.61819852457836,0 9.284474671872218,45.61816893017281,0 9.284468412680674,45.61813971618093,0 9.284465919218416,45.61811301391537,0 9.284455748748531,45.61804804154227,0 9.284443400446909,45.61798214971538,0 9.284435365028338,45.61791366933777,0 9.284424671989305,45.6178421157751,0 9.284416250882213,45.61778103828666,0 9.284408305544865,45.61772997534072,0 9.284400569497981,45.61767948469279,0 9.284394444231587,45.61764015923174,0 9.284379547553815,45.61754455866146,0 9.284365629643352,45.61744063457016,0 9.284349842165307,45.61734189202075,0 9.284339382714082,45.61725282706754,0 9.284326306148651,45.61718230059284,0 9.284315687714219,45.61711391640799,0 9.284308047392265,45.61705890781343,0 9.284300223161202,45.61701252807768,0 9.284288865923411,45.61693737748925,0 9.284280297016029,45.61686931081542,0 9.284269230281939,45.61679840547728,0 9.284260981911252,45.61672459626907,0 9.284246508512272,45.61664844802636,0 9.284238156780248,45.61658967851296,0 9.284225098370634,45.61651463842527,0 9.284214971421733,45.61643538878573,0 9.284203075530321,45.6163586884613,0 9.284193714120853,45.61629223579737,0 9.28417953638283,45.61620545388179,0 9.284169549131505,45.61614392815648,0 9.284164619467967,45.61610304580985,0 9.284150798747479,45.61600065558126,0 9.28414454546267,45.61595076659208,0 9.284136470443515,45.615891701595,0 9.284127073518517,45.61585270977751,0 9.284123839406519,45.61581821937075,0 9.284118173879891,45.61577932199207,0 9.284108819186891,45.61573273041503,0 9.284102732556612,45.61568089877259,0 9.284096898822096,45.61563595825078,0 9.284080101347564,45.61553496797121,0 9.28406666064895,45.61544323398864,0 9.2840518204275,45.61535563881773,0 9.284042780358526,45.6152843975049,0 9.284033772672169,45.61522648180596,0 9.284022023708207,45.61515483743901,0 9.284015392770968,45.61509697516427,0 9.284007043921996,45.61503598255269,0 9.283997479659455,45.61497327315961,0 9.283991378636127,45.61492807263115,0 9.28397713980797,45.61484658203692,0 9.28396593612521,45.6147659388057,0 9.283955657118025,45.6146897092441,0 9.283946071909718,45.61461535310496,0 9.283938844734678,45.61455396290589,0 9.28392575960444,45.61448689048783,0 9.283917378645572,45.61443033577136,0 9.283910661638821,45.61437985826984,0 9.28390414316452,45.61433721791536,0 9.283897953595243,45.61429501601325,0 9.283891196718406,45.61423865726299,0 9.283879374558396,45.61417594638564,0 9.283869474330997,45.61411836855,0 9.28386311139386,45.6140675786936,0 9.28386116508031,45.61403436716184,0 9.283853216590764,45.61400080818048,0 9.283845772215367,45.61394233896453,0 9.283837546658471,45.61388913462736,0 9.283831008469921,45.61384073313456,0 9.283821871642866,45.61379579420055,0 9.283817730753814,45.61375923239496,0 9.283809206678768,45.61369882053343,0 9.283800349087967,45.61363432842802,0 9.283789615373749,45.61357278926348,0 9.283785134475618,45.61353245855547,0 9.283780069475158,45.61349704898756,0 9.283775151045695,45.61346702304662,0 9.28376639535726,45.61341057690606,0 9.283755550136819,45.6133410570698,0 9.283747221516824,45.61327732362221,0 9.283741480295246,45.61323293063442,0 9.283735369399437,45.61318592687047,0 9.283720772036478,45.61310959076964,0 9.283710616027246,45.61303106264759,0 9.283695853415212,45.61295505896533,0 9.283686851536871,45.61289045769711,0 9.283679313135327,45.61283205080649,0 9.283672512994396,45.61277636516858,0 9.283666196506124,45.61273574150292,0 9.283659414702605,45.61269132803578,0 9.283653143364097,45.61266315241866,0 9.283650168069887,45.61263138670429,0 9.283645392530083,45.61260834878656,0 9.283643206774046,45.61258669063176,0 9.283639013674579,45.61256506479011,0 9.283636175158037,45.61255120574876,0 9.283634229484555,45.61253590646977,0 9.283629935721009,45.61252321118472,0 9.283624000651574,45.61250838398657,0 9.283619723795404,45.61250003429073,0 9.283619177463564,45.61249933510187,0 9.283614745957243,45.61248985426239,0 9.283611038200601,45.61247647131,0 9.283605742908517,45.6124582622493,0 9.283597652485284,45.61242987271795,0 9.283587957159863,45.61240732524278,0 9.283579740624351,45.61238754704391,0 9.283574503086546,45.61237505822677,0 9.283568125286619,45.61236381215235,0 9.283558968985322,45.61235271624567,0 9.2835523405506,45.61233857013686,0 9.283544590000279,45.61232731358773,0 9.283535756486,45.61231484134233,0 9.283526344199529,45.61230163331338,0 9.283517232876413,45.61228831112177,0 9.283508281599813,45.61227305941878,0 9.28349721479524,45.61226032952795,0 9.283487828127676,45.61224833575655,0 9.283480045451814,45.61223883606478,0 9.283471316400192,45.61222954634913,0 9.283463864810507,45.61222194960659,0 9.283456284562018,45.61221383584233,0 9.283448720096724,45.6122058774956,0 9.283442262481721,45.61219968470597,0 9.283432537818385,45.61219047963175,0 9.28342352477979,45.6121839375873,0 9.283404115885119,45.61216693907377,0 9.283386158414668,45.61215332377992,0 9.283371810218078,45.61214358711777,0 9.283362426525734,45.61213569717265,0 9.283351104279273,45.61212724498956,0 9.283337435851944,45.61211652254639,0 9.283326659563183,45.61211056728588,0 9.283315111414506,45.61210361842387,0 9.283304985450139,45.61209701255305,0 9.283292630898636,45.61209042333353,0 9.283283588978044,45.61208396744932,0 9.28327360781277,45.61207863892265,0 9.283262130210881,45.61207300345884,0 9.283248463268743,45.6120663509106,0 9.28323759966111,45.6120606321582,0 9.283219800650404,45.61205149646437,0 9.283200679051699,45.6120457358086,0 9.283184168938202,45.61203517575916,0 9.28316304145628,45.61202447609838,0 9.283143726945568,45.61201633471573,0 9.283125752175936,45.61201011649455,0 9.283112362015975,45.61200488548682,0 9.283095133863631,45.61199771492156,0 9.283077468804155,45.61199201366383,0 9.2830618513308,45.61198674475197,0 9.283044228556541,45.61198101461864,0 9.283018245976693,45.61197439594057,0 9.282996529401954,45.61196657616616,0 9.282975711488621,45.61196474091675,0 9.282955070492909,45.6119598188116,0 9.282934983707513,45.61195200632719,0 9.28291387440167,45.61194645745026,0 9.282886397062587,45.61194321619782,0 9.28285741705761,45.61193732885839,0 9.282833958966881,45.61193322931802,0 9.282808945591491,45.61193018248476,0 9.282785965553018,45.61192798709854,0 9.282763529700722,45.6119235358372,0 9.282739123210433,45.61192240540082,0 9.282715100803788,45.61192249576295,0 9.282689732444695,45.61192350234138,0 9.282661966497233,45.61192332364819,0 9.282641087129161,45.6119220344092,0 9.282608908179135,45.61192375104753,0 9.28258887423617,45.61192295322926,0 9.282566409780115,45.61192894912723,0 9.282535357605484,45.61193145580734,0 9.282504936341855,45.61193396194006,0 9.282465578553467,45.61193657632827,0 9.282421296264951,45.61194304944241,0 9.282376064669222,45.6119542032178,0 9.282321555686195,45.61196436686318,0 9.282278759726799,45.61197547928918,0 9.282221046096744,45.61199349757979,0 9.282185108509237,45.61200088973129,0 9.282138453381377,45.61201473704113,0 9.282102687520144,45.61202740540048,0 9.282067995455723,45.61203327660004,0 9.282030823495393,45.61204797291214,0 9.281986340831921,45.61205984257764,0 9.281944203562526,45.61207696515034,0 9.281900549744167,45.61209493539417,0 9.281851170501271,45.61211764819012,0 9.281811072824773,45.61213962849034,0 9.281777985092178,45.61215315785176,0 9.281754983983262,45.6121671180541,0 9.281730030304038,45.61217680464128,0 9.281707712045037,45.61219683216467,0 9.281676874630715,45.61221088867696,0 9.281652378896894,45.612225430706,0 9.281624570901029,45.61224471506456,0 9.281599209797271,45.61226199479411,0 9.281568810236262,45.61228170069369,0 9.281539352623474,45.61230005331397,0 9.28151261316097,45.61231984378226,0 9.281473021115946,45.61234778411838,0 9.281441873547742,45.61237695209594,0 9.281407778085509,45.61240452187246,0 9.281374246454156,45.6124363692792,0 9.28133513330112,45.61246918907624,0 9.281309992869783,45.61249462549466,0 9.281284280717836,45.61252663903819,0 9.281247566548291,45.61255910245009,0 9.281218085887339,45.61260195903573,0 9.281177231027824,45.61265355749465,0 9.281126978840252,45.61271140796196,0 9.281095347968032,45.61276081784841,0 9.281060706205073,45.61282175413054,0 9.281025434448297,45.61288512787959,0 9.280993600341906,45.6129524978921,0 9.280960176279249,45.61301670442872,0 9.280937303510591,45.6130860314811,0 9.280907983513,45.61314667860519,0 9.280888637659721,45.61320829595545,0 9.280877064544056,45.61325642736316,0 9.280861386119517,45.61331050827405,0 9.28084974058542,45.61337044664793,0 9.280837793920842,45.61341866141115,0 9.280827268038616,45.61346918539584,0 9.28082120534409,45.61351777480069,0 9.280817353933539,45.61356955980151,0 9.280813753274728,45.61362108297917,0 9.280807250779006,45.61368143556937,0 9.280799716711098,45.61374142395439,0 9.280795623499966,45.61380092128427,0 9.280790854248513,45.61385777065718,0 9.280789679410047,45.61393026476708,0 9.28078895688121,45.61399060862414,0 9.280792078264001,45.61405022770937,0 9.280790036700203,45.61410772511994,0 9.280788292013968,45.61416500716422,0 9.28078932503136,45.61420865743267,0 9.280788170991915,45.61426325549111,0 9.280788555487892,45.61431144079582,0 9.280787063041965,45.61438143534752,0 9.280787275712205,45.61444679756586,0 9.280786824643982,45.61449062645418,0 9.280787298248018,45.61453487035422,0 9.280786734343636,45.61457761278623,0 9.280784435409872,45.6146282208374,0 9.280783599317017,45.61468283770483,0 9.280785318472276,45.61474269495046,0 9.280784885472999,45.61479078340111,0 9.280786501107086,45.61484258002444,0 9.280791733843071,45.61490241809489,0 9.280793794877773,45.61497765849139,0 9.280797784087856,45.61504322507714,0 9.280803687088063,45.61510176474467,0 9.280804330467394,45.61518596363992,0 9.280811498529598,45.6152539982162,0 9.280813311497592,45.61532049093364,0 9.280823139470069,45.6153993796832,0 9.280826818861081,45.61548242586841,0 9.280830592622065,45.61557155285327,0 9.280836594768065,45.61565306395345,0 9.280840734938051,45.61574086227762,0 9.280854349602269,45.61581091474192,0 9.280858308614846,45.61589492245746,0 9.280863032385479,45.61597483305678,0 9.28086377396234,45.6160222336753,0 
			</coordinates>
		</LineString>
		<atom:link rel="app" href="https://www.google.com/earth/about/versions/#earth-pro" title="Google Earth Pro 7.3.7.1155"></atom:link>
	</Placemark>
</Document>
</kml>
